Hospital name,Address,Latitude,Longitude,Zone,Easting,Northing,City,Full Address,Type
Mukund Hospital,"Metro Station, Mukund nagar society Andheri-kurla road, near airport road",19.1101477,72.8742319,43,276370.1799,2114373.728,andheri,"Mukund Hospital Metro Station, Mukund nagar society Andheri-kurla road, near airport road Andheri ",Hospital
Seven Hills Hospital,Marol Maroshi Rd,19.1175731,72.8801416,43,277002.0663,2115188.24,andheri,Seven Hills Hospital Marol Maroshi Rd Andheri ,Hospital
Kiran Care and Cure Hospital,"Ground Floor, Sankalp Building, Mistry Complex, Sahar Airport Road, Near Greater bank, JB Nagar, Andheri East",19.106868,72.865505,43,275447.3486,2114021.816,andheri,"Kiran Care and Cure Hospital Ground Floor, Sankalp Building, Mistry Complex, Sahar Airport Road, Near Greater bank, JB Nagar, Andheri East Andheri ",Hospital
Chiranjeevi Hospital,"High School, 101/102, Plot No 18/A, Bhawani Tower, Bhawani Nagar, Near Marol Academic, Off Marol Maroshi Road",19.1191121,72.8813628,43,277132.6408,2115357.064,andheri,"Chiranjeevi Hospital High School, 101/102, Plot No 18/A, Bhawani Tower, Bhawani Nagar, Near Marol Academic, Off Marol Maroshi Road Andheri ",Hospital
Holy Spirit Hospital,Mahakali Caves Rd,19.1253651,72.8664633,43,275573.1843,2116068.398,andheri,Holy Spirit Hospital Mahakali Caves Rd Andheri ,Hospital
Sugun Hospital,"Plot No.236, Twin Arcade, Military Rd",19.1166091,72.8824203,43,277240.5675,2115078.611,andheri,"Sugun Hospital Plot No.236, Twin Arcade, Military Rd Andheri ",Hospital
Esic Model Hospital Cum ODC,"MIDC Central Road, Andheri East",19.1232273,72.8714345,43,276093.4135,2115825.345,andheri,"Esic Model Hospital Cum ODC MIDC Central Road, Andheri East Andheri ",Hospital
Medicare Hospital,"Near Petrol Pump, Marol Naka, Andheri Kurla Road, Andheri East",19.1084314,72.8777901,43,276742.3314,2114179.171,andheri,"Medicare Hospital Near Petrol Pump, Marol Naka, Andheri Kurla Road, Andheri East Andheri ",Hospital
CritiCare Hospital,"Plot No 516, Besides SBI, Teli Gali",19.1170784,72.8506037,43,273893.0165,2115171.417,andheri,"CritiCare Hospital Plot No 516, Besides SBI, Teli Gali Andheri ",Hospital
Shakuntala Memorial Hospital,"182, Mahakali Caves Rd",19.1267927,72.8670778,43,275639.7758,2116225.658,andheri,"Shakuntala Memorial Hospital 182, Mahakali Caves Rd Andheri ",Hospital
ESIC Hospitals & Dispensaries,"E-6 MIDC Central Road, Andheri - Kurla Rd",19.118501,72.8672722,43,275649.0331,2115307.435,andheri,"ESIC Hospitals & Dispensaries E-6 MIDC Central Road, Andheri - Kurla Rd Andheri ",Hospital
Nakshatra Hospital,"Grace Plaza, Road Number 12, MIDC Industry Estate, Andheri East, opp. Goldfinch Hotel",19.1197671,72.8701338,43,275951.8745,2115443.934,andheri,"Nakshatra Hospital Grace Plaza, Road Number 12, MIDC Industry Estate, Andheri East, opp. Goldfinch Hotel Andheri ",Hospital
Sanjeevani hospital,"11, Nityanand nagar, Sahar Rd",19.1168883,72.8475485,43,273571.2444,2115154.325,andheri,"Sanjeevani hospital 11, Nityanand nagar, Sahar Rd Andheri ",Hospital
New JP Hospital,"Dilkap Mall, 209, 2nd, Andheri - Kurla Rd",19.1014961,72.8849547,43,277487.0418,2113402.242,andheri,"New JP Hospital Dilkap Mall, 209, 2nd, Andheri - Kurla Rd Andheri ",Hospital
Paramount General Hospital & ICCU,"Laxmi Commercial Premises, Near Sakinaka Junction, Andheri Kurla Road Andheri East, Magan Nathuram Rd",19.1038036,72.8868575,43,277690.3821,2113655.283,andheri,"Paramount General Hospital & ICCU Laxmi Commercial Premises, Near Sakinaka Junction, Andheri Kurla Road Andheri East, Magan Nathuram Rd Andheri ",Hospital
Independence Hospital & Aparna Maternity,"110A, 1st Floor, Saraswati Sadan, Opposite Navrang Cinema, J P Road,, Andheri West",19.1241115,72.8416174,43,272956.9572,2115961.709,andheri,"Independence Hospital & Aparna Maternity 110A, 1st Floor, Saraswati Sadan, Opposite Navrang Cinema, J P Road,, Andheri West Andheri ",Hospital
Dharmakshetra Medical Center,"Mahakali Caves Road, Sunder Nagar, Andheri East, Mumbai Suburban",19.129515,72.8698351,43,275933.593,2116523.505,andheri,"Dharmakshetra Medical Center Mahakali Caves Road, Sunder Nagar, Andheri East, Mumbai Suburban Andheri ",Hospital
"ESI PGIMSR , ANDHERI EAST","55-A, Krantiveer Lakhuji Salve Marg",19.117605,72.865453,43,275456.3825,2115210.575,andheri,"ESI PGIMSR , ANDHERI EAST 55-A, Krantiveer Lakhuji Salve Marg Andheri ",Hospital
IM Multispeciality Hospital (Hospital in Vasai West),"Near Municipal Garden Hathi Moholla Road Hathi Mohalla, Vasai Road West Vasai Road, West",19.3402809,72.8032027,43,269216.9279,2139945.203,vasairoad,"IM Multispeciality Hospital (Hospital in Vasai West) Near Municipal Garden Hathi Moholla Road Hathi Mohalla, Vasai Road West Vasai Road, West Vasai ",Hospital
Platinum Hospital Vasai,"Shree Sankalp Siddhi Complex, opposite to Range Office",19.4053117,72.8498863,43,274212.7379,2147083.324,vasairoad,"Platinum Hospital Vasai Shree Sankalp Siddhi Complex, opposite to Range Office Vasai ",Hospital
Cardinal Gracias Memorial Hospital,"Bangli Checkpoint, Bassein Road",19.364336,72.805132,43,269453.5123,2142605.909,vasairoad,"Cardinal Gracias Memorial Hospital Bangli Checkpoint, Bassein Road Vasai ",Hospital
Navjeevan Hospital and Vasai Test Tube Baby Centre,"Above Muthoot Finance, Besides SBI Bank, Bhabola-Chulna Road, Naka",19.3681859,72.8168985,43,270695.3117,2143016.482,vasairoad,"Navjeevan Hospital and Vasai Test Tube Baby Centre Above Muthoot Finance, Besides SBI Bank, Bhabola-Chulna Road, Naka Vasai ",Hospital
Golden Park Hospital,"Golden Park Commercial Complex, Sai Nagar, Navghar-Manikpur Near Parvati Cinema",19.3811588,72.8281071,43,271891.1352,2144437.922,vasairoad,"Golden Park Hospital Golden Park Commercial Complex, Sai Nagar, Navghar-Manikpur Near Parvati Cinema Vasai ",Hospital
Vasai Virar City Municipal Corporation Hospital,"3, Sativali Rd",19.4050649,72.8518814,43,274421.9834,2147053.387,vasairoad,"Vasai Virar City Municipal Corporation Hospital 3, Sativali Rd Vasai ",Hospital
Indradhanush Hospital,"Evershine City, Vasai East",19.4066276,72.8394477,43,273117.9814,2147242.725,vasairoad,"Indradhanush Hospital Evershine City, Vasai East Vasai ",Hospital
DM Petit Muncipal Hospital,Zenda Bazaar Road,19.339574,72.806465,43,269558.7855,2139862.586,vasairoad,DM Petit Muncipal Hospital Zenda Bazaar Road Vasai ,Hospital
Vikas Children Hospital,"Above Welcome Stationery, opp. Panchal Nagar",19.3794725,72.8280342,43,271881.1261,2144251.32,vasairoad,"Vikas Children Hospital Above Welcome Stationery, opp. Panchal Nagar Vasai ",Hospital
Astha Hospital,"104, New Krishna Hsg Society, Ambadi Road, Vasai West, near Dhuri Motors",19.3859543,72.8266535,43,271745.0968,2144970.778,vasairoad,"Astha Hospital 104, New Krishna Hsg Society, Ambadi Road, Vasai West, near Dhuri Motors Vasai ",Hospital
Bhaktivedanta Hospital & Research Institute,Bhaktivedanta Swami Marg,19.2696461,72.8715488,43,276303.5354,2132035.286,miraroad,Bhaktivedanta Hospital & Research Institute Bhaktivedanta Swami Marg Mira Road ,Hospital
Indira Gandhi Municipal Hospital,Poonam Sagar Rd,19.2743884,72.8615728,43,275261.1634,2132573.209,miraroad,Indira Gandhi Municipal Hospital Poonam Sagar Rd Mira Road ,Hospital
"Shah Lifeline Hospital Heart Institute Pvt Ltd - Multispeciality, 24 Hours Emergency Hospital in Mira Road","Geeta Nagar, Phase-7, Near Mira Bhayander, Mira Bhayandar Rd",19.2857088,72.869047,43,276062.3512,2133816.838,miraroad,"Shah Lifeline Hospital Heart Institute Pvt Ltd - Multispeciality, 24 Hours Emergency Hospital in Mira Road Geeta Nagar, Phase-7, Near Mira Bhayander, Mira Bhayandar Rd Mira Road ",Hospital
Wockhardt Hospitals,"The Umrao Institute of Medical Science and Research, Evershine Rd, near Railway Station",19.28432,72.8621553,43,275335.9562,2133671.999,miraroad,"Wockhardt Hospitals The Umrao Institute of Medical Science and Research, Evershine Rd, near Railway Station Mira Road ",Hospital
Ashoka General Hospital,"Shalibhadra Tower, 1st Floor, Flat No. 101, 102, Mira Bhayandar Rd",19.2754152,72.8811782,43,277323.732,2132661.597,miraroad,"Ashoka General Hospital Shalibhadra Tower, 1st Floor, Flat No. 101, 102, Mira Bhayandar Rd Mira Road ",Hospital
Life Care Hospital,"Sheetal Nagar, Mira Road East, Thane - 401107 India",19.2825976,72.8652097,43,275654.7098,2133477.354,miraroad,"Life Care Hospital Sheetal Nagar, Mira Road East, Thane - 401107 India Mira Road ",Hospital
Orbit Superspeciality Hospital,"Western Express Hwy, opp. Amar Palace Hotel, near Dahisar Check Naka",19.262574,72.873343,43,276482.5775,2131250.013,miraroad,"Orbit Superspeciality Hospital Western Express Hwy, opp. Amar Palace Hotel, near Dahisar Check Naka Mira Road ",Hospital
Life - Line Hospital,"Wing-C, Mira Bhayandar Rd",19.2857088,72.869047,43,276062.3512,2133816.838,miraroad,"Life - Line Hospital Wing-C, Mira Bhayandar Rd Mira Road ",Hospital
SAI AASHIRWAD HOSPITAL,"1, Dharti Building, Shivam, Sai Sadan, House No",19.2862811,72.863578,43,275488.196,2133887.273,miraroad,"SAI AASHIRWAD HOSPITAL 1, Dharti Building, Shivam, Sai Sadan, House No Mira Road ",Hospital
Sheth P.V. Doshi Hospital,"Shanti Park Rd, opp. sector6/7",19.2777599,72.8666932,43,275804.08,2132939.845,miraroad,"Sheth P.V. Doshi Hospital Shanti Park Rd, opp. sector6/7 Mira Road ",Hospital
Thunga Hospital,Mira Bhayander Rd,19.2857088,72.869047,43,276062.3512,2133816.838,miraroad,Thunga Hospital Mira Bhayander Rd Mira Road ,Hospital
Gayatri Hospital Mira Road,Swaminarayan Rd,19.2788383,72.8606207,43,275167.1412,2133067.099,miraroad,Gayatri Hospital Mira Road Swaminarayan Rd Mira Road ,Hospital
Tanwar Hospital,"Tanwar Tower, Queens Park, P.K. Road, Off Mira-Bhyandar Rd, Mira Road East",19.2938625,72.8625516,43,275390.6435,2134727.954,miraroad,"Tanwar Hospital Tanwar Tower, Queens Park, P.K. Road, Off Mira-Bhyandar Rd, Mira Road East Mira Road ",Hospital
Riddhi Siddhi Hospital,"1st Floor, Sheetal Plaza, Mira Bhayandar Rd, opposite Shivar Garden",19.2892719,72.8655996,43,275704.7951,2134215.772,miraroad,"Riddhi Siddhi Hospital 1st Floor, Sheetal Plaza, Mira Bhayandar Rd, opposite Shivar Garden Mira Road ",Hospital
Suvarna Hospital,"First Floor, Chandan Valley, Mira Bhayandar Road, Mira Road E, near Brahmdev Mandir",19.2899325,72.8659963,43,275747.3981,2134288.395,miraroad,"Suvarna Hospital First Floor, Chandan Valley, Mira Bhayandar Road, Mira Road E, near Brahmdev Mandir Mira Road ",Hospital
Shiv Om Hospital mother and child care.,"Mira Bhayandar Rd, opposite Golden Nest Complex",19.294762,72.85959,43,275080.5458,2134831.382,miraroad,"Shiv Om Hospital mother and child care. Mira Bhayandar Rd, opposite Golden Nest Complex Mira Road ",Hospital
Sanjeevani Hospital,"Ground Floor, A/7, Sector 2, Shanti Nagar, Mira Road East",19.278687,72.86054,43,275158.4505,2133050.453,miraroad,"Sanjeevani Hospital Ground Floor, A/7, Sector 2, Shanti Nagar, Mira Road East Mira Road ",Hospital
Galaxy Hospital,near Vasudev Arcade,19.2967398,72.8751555,43,276719.4832,2135030.213,miraroad,Galaxy Hospital near Vasudev Arcade Mira Road ,Hospital
LIFE STAR MULTISPECIALITY HOSPITAL - General Surgery Hospital Mira Road,"G-1, Sai Agan Building, Next to Nine Galaxy Building, Ramdev Park, Mira Road East",19.2934907,72.8676293,43,275923.9109,2134680.217,miraroad,"LIFE STAR MULTISPECIALITY HOSPITAL - General Surgery Hospital Mira Road G-1, Sai Agan Building, Next to Nine Galaxy Building, Ramdev Park, Mira Road East Mira Road ",Hospital
Lotus Multispeciality Hospital Borivali W,"Chandresh CHS Devki Nagar,, Near St. Lawrence School, Borivali (W), Eksar Village, Borivali West",19.2406112,72.8452939,43,273503.2884,2128854.824,borivali,"Lotus Multispeciality Hospital Borivali W Chandresh CHS Devki Nagar,, Near St. Lawrence School, Borivali (W), Eksar Village, Borivali West Borivali ",Hospital
HCG Cancer Centre Borivali,"Holy Cross Road, I C Colony Off Borivali Dahisar, New Link Rd",19.2530208,72.8507758,43,274096.7402,2130221.579,borivali,"HCG Cancer Centre Borivali Holy Cross Road, I C Colony Off Borivali Dahisar, New Link Rd Borivali ",Hospital
Karuna Hospital,"Jeevan Bima Nagar, LIC Colony Rd, near Bhagwati Hospital",19.2412606,72.8531175,43,274326.8757,2128916.539,borivali,"Karuna Hospital Jeevan Bima Nagar, LIC Colony Rd, near Bhagwati Hospital Borivali ",Hospital
Mandapeshwar Nursing Home (Paramount Ganapati Medicare ),"Gomti Apartments, Rokadia X Lane, Nr, Sudhir Phadke Flyover",19.237499,72.856061,43,274631.2631,2128496.264,borivali,"Mandapeshwar Nursing Home (Paramount Ganapati Medicare ) Gomti Apartments, Rokadia X Lane, Nr, Sudhir Phadke Flyover Borivali ",Hospital
Apex Hospitals Borivali,"Vaishali Heights, Chandavarkar Rd, near Standard Chartered Bank",19.2309929,72.8491455,43,273895.1318,2127784.945,borivali,"Apex Hospitals Borivali Vaishali Heights, Chandavarkar Rd, near Standard Chartered Bank Borivali ",Hospital
National Hospital,"1st Floor, MatruAshish Building, Next To Madhav Hall, Mahatma Gandhi Road, Borivali East",19.2311856,72.8614943,43,275194.0173,2127790.26,borivali,"National Hospital 1st Floor, MatruAshish Building, Next To Madhav Hall, Mahatma Gandhi Road, Borivali East Borivali ",Hospital
Shri Harilal Bhagwati Municipal Hospital,"Sardar Vallabhbhai Patel Rd, opposite Axis Bank",18.9579432,72.8280422,43,271300.7979,2097582.693,borivali,"Shri Harilal Bhagwati Municipal Hospital Sardar Vallabhbhai Patel Rd, opposite Axis Bank Borivali ",Hospital
Shree Ganesha Hospital - Best Multi-Speciality Hospital in Borivali West,"Bina Apart, Lokmanya Tilak Rd, near Damodar Medical",19.2281812,72.845887,43,273548.6041,2127477.897,borivali,"Shree Ganesha Hospital - Best Multi-Speciality Hospital in Borivali West Bina Apart, Lokmanya Tilak Rd, near Damodar Medical Borivali ",Hospital
Narendra Hospital,"Seeta Mahal, Ground Floor, Kasturba, Rd Number 5",19.2019135,72.8510247,43,274052.9902,2124563.068,borivali,"Narendra Hospital Seeta Mahal, Ground Floor, Kasturba, Rd Number 5 Borivali ",Hospital
"Dhanvantari Hospital Borivali - Gynecology,Maternity, Nursing Home & Multispeciality Hospital in Borivali","Dhaval apartment, Factory Ln, near Railway Station",19.2257301,72.8522264,43,274211.9294,2127198.285,borivali,"Dhanvantari Hospital Borivali - Gynecology,Maternity, Nursing Home & Multispeciality Hospital in Borivali Dhaval apartment, Factory Ln, near Railway Station Borivali ",Hospital
Apex Superspeciality Hospitals,"Lokmanya Tilak Rd, beside Punjab & Sind Bank",19.227942,72.8454783,43,273505.2954,2127451.947,borivali,"Apex Superspeciality Hospitals Lokmanya Tilak Rd, beside Punjab & Sind Bank Borivali ",Hospital
Purohit Hospital,"Kahan Bhavan, Ground Floor, L. T. Road, Borivali (west), behind Diamond Cinema",19.2288206,72.8548429,43,274491.3151,2127537.044,borivali,"Purohit Hospital Kahan Bhavan, Ground Floor, L. T. Road, Borivali (west), behind Diamond Cinema Borivali ",Hospital
Phoenix Hospital,"CTS 374, B(21, RDP 10",19.2196006,72.8380995,43,272717.8283,2126538.08,borivali,"Phoenix Hospital CTS 374, B(21, RDP 10 Borivali ",Hospital
Aastha Lifecare Hospital and Medical Centre,"Sheetal Apartment Junction of S V Road & Daulat Nagar Road No 5 Opp Hanuman Temple, Borivali (E",19.23757,72.8597981,43,275024.3443,2128499.281,borivali,"Aastha Lifecare Hospital and Medical Centre Sheetal Apartment Junction of S V Road & Daulat Nagar Road No 5 Opp Hanuman Temple, Borivali (E Borivali ",Hospital
Apex Multispeciality Hospitals,"Dattapada Road, Off, Western Express Hwy, next to Suswagat Restaurant",19.220843,72.863067,43,275345.335,2126643.185,borivali,"Apex Multispeciality Hospitals Dattapada Road, Off, Western Express Hwy, next to Suswagat Restaurant Borivali ",Hospital
Sai Lee Hospital & Diagnostic Centre,"Bosco School, Prathamesh Horizon, New MHB Colony, New Link Road New Don",19.2277342,72.8406276,43,272994.8883,2127435.269,borivali,"Sai Lee Hospital & Diagnostic Centre Bosco School, Prathamesh Horizon, New MHB Colony, New Link Road New Don Borivali ",Hospital
SANCHAITI SUPERSPECIALITY HOSPITAL,"1, Akurli Rd",19.1975673,72.8714262,43,276192.9406,2124055.541,kandivali,"SANCHAITI SUPERSPECIALITY HOSPITAL 1, Akurli Rd Kandivali ",Hospital
Namaha Hospital,"S V Road, Kandivali West",19.2085946,72.8506734,43,274025.1721,2125303.2,kandivali,"Namaha Hospital S V Road, Kandivali West Kandivali ",Hospital
Saraswati Hospital,"Sushila Sadan, Near Charkop Bus Depot & Mtnl Kandicali West, Kandivali West, Kandivali West",19.221534,72.8289019,43,271753.1852,2126764.179,kandivali,"Saraswati Hospital Sushila Sadan, Near Charkop Bus Depot & Mtnl Kandicali West, Kandivali West, Kandivali West Kandivali ",Hospital
"United Multispeciality Hospital - General Surgeon, Physician, Cardiologist, Orthopaedic & Spine Surgeon in Kandivali, Mumbai","Kesar Ashish, 1,2,3A, New Link Rd, near Hyundai Showroom",19.2229206,72.8411735,43,273045.6825,2126901.631,kandivali,"United Multispeciality Hospital - General Surgeon, Physician, Cardiologist, Orthopaedic & Spine Surgeon in Kandivali, Mumbai Kesar Ashish, 1,2,3A, New Link Rd, near Hyundai Showroom Kandivali ",Hospital
DNA Multispeciality Hospital,"2, Whispering Palms Shopping Complex Akurli Road Opp.Mahindra Gate",19.200522,72.87134,43,276187.8723,2124382.768,kandivali,"DNA Multispeciality Hospital 2, Whispering Palms Shopping Complex Akurli Road Opp.Mahindra Gate Kandivali ",Hospital
Phoenix Hospital Pvt Ltd.,"Shop No-B-7/8/5, 1st Floor, Pooja Enclave, Orchid Suburbia New Link Road",19.203007,72.8279572,43,271628.2312,2124714.238,kandivali,"Phoenix Hospital Pvt Ltd. Shop No-B-7/8/5, 1st Floor, Pooja Enclave, Orchid Suburbia New Link Road Kandivali ",Hospital
Lotus Multispeciality Hospital,"Vinayak Apartment, Opposite Vaishali Bhuvan/Domino's, Mahatma Gandhi Rd",19.204409,72.838857,43,272776.6088,2124855.191,kandivali,"Lotus Multispeciality Hospital Vinayak Apartment, Opposite Vaishali Bhuvan/Domino's, Mahatma Gandhi Rd Kandivali ",Hospital
Sukhsagar Hitech Hospital,"Ground Floor, Shrikrishna CHS, near Sankalp Hotel",19.215776,72.840362,43,272950.5195,2126111.694,kandivali,"Sukhsagar Hitech Hospital Ground Floor, Shrikrishna CHS, near Sankalp Hotel Kandivali ",Hospital
Vansh Hospital,"Thakur Complex, 90 Feet Rd",19.2132494,72.8637937,43,275411.4388,2125801.551,kandivali,"Vansh Hospital Thakur Complex, 90 Feet Rd Kandivali ",Hospital
E.S.I.S. Hospital,Akurli Rd,19.2012483,72.866182,43,275646.3362,2124469.817,kandivali,E.S.I.S. Hospital Akurli Rd Kandivali ,Hospital
BMC Hospital,RSC Rd Number 45,19.2167834,72.8277288,43,271623.2437,2126239.766,kandivali,BMC Hospital RSC Rd Number 45 Kandivali ,Hospital
"Thunga Hospital, Malad","Opp. Nirman Hitech Diagnostics, Goraswadi Lane, Near PVR Milap theatre, Off, Swami Vivekananda Rd",19.1953203,72.8461197,43,273528.0505,2123839.497,kandivali,"Thunga Hospital, Malad Opp. Nirman Hitech Diagnostics, Goraswadi Lane, Near PVR Milap theatre, Off, Swami Vivekananda Rd Kandivali ",Hospital
Seven Star Multispeciality Hospital,"Dimple Arcade, Surabhi House, Asha Nagar Rd, behind Sai Dham",19.211983,72.866996,43,275746.5147,2125657.215,kandivali,"Seven Star Multispeciality Hospital Dimple Arcade, Surabhi House, Asha Nagar Rd, behind Sai Dham Kandivali ",Hospital
Oscar Hospital,"D And E Wing, Pooja Enclave, 15-22, Ambedkar Rd",19.203608,72.8275824,43,271589.6395,2124781.269,kandivali,"Oscar Hospital D And E Wing, Pooja Enclave, 15-22, Ambedkar Rd Kandivali ",Hospital
WINS hospital,"3/3B, kesar ashish housing cooperative society, New Link Rd, near mahavir nagar",19.2169165,72.8380036,43,272704.0497,2126241.042,kandivali,"WINS hospital 3/3B, kesar ashish housing cooperative society, New Link Rd, near mahavir nagar Kandivali ",Hospital
Pragati Multispeciality Hospital,"4, Ramkunwar Thakur Marg",19.2528001,72.8630552,43,275387.5906,2130181.213,dahisar,"Pragati Multispeciality Hospital 4, Ramkunwar Thakur Marg Dahisar ",Hospital
Dr. Mulgaonkar's Abhinav Sushrut Hospital,"Mangirish Building, Ramkunwar Thakur Marg, near Movie Gem",19.2527957,72.8627621,43,275356.7659,2130181.105,dahisar,"Dr. Mulgaonkar's Abhinav Sushrut Hospital Mangirish Building, Ramkunwar Thakur Marg, near Movie Gem Dahisar ",Hospital
Silverline Hospital,"A-001, Chamunda Vihar, Rajaram Tawde Rd",19.250873,72.857071,43,274755.7335,2129975.613,dahisar,"Silverline Hospital A-001, Chamunda Vihar, Rajaram Tawde Rd Dahisar ",Hospital
SANJIVANI HOSPITAL,"A1, Sai Mandir Building, Swami Vivekananda Road, Near Ravindra Hotel, Dahisar East",19.2510371,72.8629585,43,275375.0213,2129986.154,dahisar,"SANJIVANI HOSPITAL A1, Sai Mandir Building, Swami Vivekananda Road, Near Ravindra Hotel, Dahisar East Dahisar ",Hospital
"K. K. Hospital | Best Gynaecologist in Dahisar | Best Maternity Hospital in Dahisar | Nursing Home in Dahisar | Hospital in dahisar | Surgical Hospital for Piles, Fissures, Fistula | Best Surgeon in Dahisar |","Raghukul Building, Swami Vivekananda Marg",19.2468231,72.8610789,43,275171.6393,2129522.048,dahisar,"K. K. Hospital | Best Gynaecologist in Dahisar | Best Maternity Hospital in Dahisar | Nursing Home in Dahisar | Hospital in dahisar | Surgical Hospital for Piles, Fissures, Fistula | Best Surgeon in Dahisar | Raghukul Building, Swami Vivekananda Marg Dahisar ",Hospital
HCG Cancer Centre Borivali,"Holy Cross Road, I C Colony Off Borivali Dahisar, New Link Rd",19.2530208,72.8507758,43,274096.7402,2130221.579,dahisar,"HCG Cancer Centre Borivali Holy Cross Road, I C Colony Off Borivali Dahisar, New Link Rd Dahisar ",Hospital
NIHS Re-Life Hospitals Ltd. (Crystal Hospitals Ltd.),"Waman Rao Sawant Road, Maratha Colony, Dahisar East",19.2522394,72.8611506,43,275186.5621,2130121.602,dahisar,"NIHS Re-Life Hospitals Ltd. (Crystal Hospitals Ltd.) Waman Rao Sawant Road, Maratha Colony, Dahisar East Dahisar ",Hospital
Life Care Hospital,"Sanghavi Exotica Building, 1st Floor, Opposite Movie Gem Theatre, Maratha Colony Rd, near Ravindra Hotel",19.251698,72.8623507,43,275312.0125,2130060.109,dahisar,"Life Care Hospital Sanghavi Exotica Building, 1st Floor, Opposite Movie Gem Theatre, Maratha Colony Rd, near Ravindra Hotel Dahisar ",Hospital
"BMC Hospital,Dahisar(West)",Lokmanya Tilak Rd,19.2303852,72.8393453,43,272863.6824,2127730.443,dahisar,"BMC Hospital,Dahisar(West) Lokmanya Tilak Rd Dahisar ",Hospital
Mahambare Hospital,"Sai Mandir, Near Sanjeevani Hospital, Swami Vivekananda Marg",19.2510371,72.8629585,43,275375.0213,2129986.154,dahisar,"Mahambare Hospital Sai Mandir, Near Sanjeevani Hospital, Swami Vivekananda Marg Dahisar ",Hospital
Navneet Hitech Hospital,"LT Road, Dahisar East",19.2514146,72.8588712,43,274945.7619,2130033.24,dahisar,"Navneet Hitech Hospital LT Road, Dahisar East Dahisar ",Hospital
Amee Meternity & Surgical Hospital,"Jay Radha Krishna Society, Swami Vivekananda Marg",19.2529644,72.8642561,43,275514.0859,2130197.85,dahisar,"Amee Meternity & Surgical Hospital Jay Radha Krishna Society, Swami Vivekananda Marg Dahisar ",Hospital
Meeti Lifeline Hospital,"Rustomjee Compelx, Jaywant Savant Road, Near Rustomjee School, Dahisar West",19.2446486,72.8589814,43,274948.1174,2129284.022,dahisar,"Meeti Lifeline Hospital Rustomjee Compelx, Jaywant Savant Road, Near Rustomjee School, Dahisar West Dahisar ",Hospital
Chamunda Hospital,"D Wing, Ground and First Floor, Door No 1&2, Nanda Dham Building, B.P Road, Dahisar West, near Majestic Hotel",19.3069448,72.8561413,43,274734.7041,2136184.649,dahisar,"Chamunda Hospital D Wing, Ground and First Floor, Door No 1&2, Nanda Dham Building, B.P Road, Dahisar West, near Majestic Hotel Dahisar ",Hospital
Suchak Hospital Ashtavinayaka eye Care,"A-Sunlit Height Building, Opposite New Police Station, Dahisar Parikh Apartment, Swami Vivekanand Road, Maratha Colony, Dahisar East",19.252932,72.864608,43,275551.0432,2130193.808,dahisar,"Suchak Hospital Ashtavinayaka eye Care A-Sunlit Height Building, Opposite New Police Station, Dahisar Parikh Apartment, Swami Vivekanand Road, Maratha Colony, Dahisar East Dahisar ",Hospital
Dr Parag and Dr Varsha Agrawat's Sadguru Hospital,"101, Shiv Vallabh Rd",19.2430759,72.8664611,43,275732.4905,2129100.232,dahisar,"Dr Parag and Dr Varsha Agrawat's Sadguru Hospital 101, Shiv Vallabh Rd Dahisar ",Hospital
"Pinnacle Hospital ,DR NITU SINGH","D Wing,1st Floor , NORTHERN HEIGHTS Near Sammelan Hotel,Opposite Hyland Park , Shanti Nagar, Swami Vivekanand Marg",19.2485889,72.8640274,43,275484.0818,2129713.728,dahisar,"Pinnacle Hospital ,DR NITU SINGH D Wing,1st Floor , NORTHERN HEIGHTS Near Sammelan Hotel,Opposite Hyland Park , Shanti Nagar, Swami Vivekanand Marg Dahisar ",Hospital
"Lifeline Multispeciality Hospital - Charitable, Cashless Hospital in Malad West","Sainath Rd, near BATA SHOWROOM",19.1900654,72.8469784,43,273611.1825,2123256.601,malad,"Lifeline Multispeciality Hospital - Charitable, Cashless Hospital in Malad West Sainath Rd, near BATA SHOWROOM Malad ",Hospital
"Thunga Hospital, Malad","Opp. Nirman Hitech Diagnostics, Goraswadi Lane, Near PVR Milap theatre, Off, Swami Vivekananda Rd",19.1953203,72.8461197,43,273528.0505,2123839.497,malad,"Thunga Hospital, Malad Opp. Nirman Hitech Diagnostics, Goraswadi Lane, Near PVR Milap theatre, Off, Swami Vivekananda Rd Malad ",Hospital
Zenith Hospital,"Parth Business Plaza, Mith Chowky",19.194663,72.83401,43,272253.3813,2123782.522,malad,"Zenith Hospital Parth Business Plaza, Mith Chowky Malad ",Hospital
Suchak Hospital,"186, Manchubhai Rd",19.1889023,72.8500318,43,273930.7756,2123123.866,malad,"Suchak Hospital 186, Manchubhai Rd Malad ",Hospital
Sai Kripa Hospital & ICU,"Ashish CHS, Rani Sati Rd, near Saibaba Temple",19.1840583,72.8489846,43,273814.0018,2122588.939,malad,"Sai Kripa Hospital & ICU Ashish CHS, Rani Sati Rd, near Saibaba Temple Malad ",Hospital
Atlantis HOSPITAL LLP,"Bayview, A-101-104, Malad - Marve Rd",19.1963618,72.8269873,43,271517.0353,2123979.801,malad,"Atlantis HOSPITAL LLP Bayview, A-101-104, Malad - Marve Rd Malad ",Hospital
Ashoka General Hospital,"First Floor, Ashoka Palace B, Road",19.181864,72.85312,43,274246.0204,2122340.641,malad,"Ashoka General Hospital First Floor, Ashoka Palace B, Road Malad ",Hospital
Raksha Multi. Hosp. Pvt. Ltd.,"1st Floor, D-11, Asmita Jyoti Housing Society, Marve road, Near Athrava College, Malad West",19.1967385,72.8272386,43,271543.9887,2124021.177,malad,"Raksha Multi. Hosp. Pvt. Ltd. 1st Floor, D-11, Asmita Jyoti Housing Society, Marve road, Near Athrava College, Malad West Malad ",Hospital
S.K. Patil Mahanagarpalika General Hospital,Daftary Road,19.1885547,72.8535059,43,274295.7383,2123080.878,malad,S.K. Patil Mahanagarpalika General Hospital Daftary Road Malad ,Hospital
Lifeline Medicare Hospitals,"Ground Floor, DLH Park, Swami Vivekananda Rd, near MTNL Signal",19.1743581,72.8446157,43,273341.1488,2121520.691,malad,"Lifeline Medicare Hospitals Ground Floor, DLH Park, Swami Vivekananda Rd, near MTNL Signal Malad ",Hospital
Sanjeevani Hospital Malad East,"Bhawani Chambers, Kedarmal Road Bhagwan Jain Temple Off, Rani Sati Marg, opposite to Sumtinath",19.1845916,72.8527984,43,274215.9106,2122643.034,malad,"Sanjeevani Hospital Malad East Bhawani Chambers, Kedarmal Road Bhagwan Jain Temple Off, Rani Sati Marg, opposite to Sumtinath Malad ",Hospital
Saraswati Hospital,"1, Divya Appartment, New Link Rd",19.1898861,72.8354552,43,272398.8251,2123251.77,malad,"Saraswati Hospital 1, Divya Appartment, New Link Rd Malad ",Hospital
Surana Hospital and Research Centre,"Tank Road, End of, Shankar Lane, near Orlem Church",19.1990293,72.8383785,43,272718.8864,2124260.217,malad,"Surana Hospital and Research Centre Tank Road, End of, Shankar Lane, near Orlem Church Malad ",Hospital
Sudha Hospital And Polyclinic,"Radhakunj A Building, Ground Floor, Haji Bapu Road, Nevetia Road, Matanpur Nagar, Malad East",19.1812006,72.8493407,43,273847.5567,2122272.096,malad,"Sudha Hospital And Polyclinic Radhakunj A Building, Ground Floor, Haji Bapu Road, Nevetia Road, Matanpur Nagar, Malad East Malad ",Hospital
Cloudnine Hospital - Malad,"Siddhachal Arcade CTS Nos. 1084C & 1186A, New Link Rd",19.1755524,72.8376046,43,272605.2297,2121662.046,malad,"Cloudnine Hospital - Malad Siddhachal Arcade CTS Nos. 1084C & 1186A, New Link Rd Malad ",Hospital
Aditi Hospital,"Param Ratan Apartment, 1st Floor, Haji Zakeria Rd",19.1864873,72.8459309,43,273496.1003,2122861.825,malad,"Aditi Hospital Param Ratan Apartment, 1st Floor, Haji Zakeria Rd Malad ",Hospital
Suvidha Hospital & ICCU,"3, Neelam Apartments, Triveni Nagar Society, Pathanwadi Rd",19.1813462,72.8634206,43,275328.869,2122270.001,malad,"Suvidha Hospital & ICCU 3, Neelam Apartments, Triveni Nagar Society, Pathanwadi Rd Malad ",Hospital
Vanita general hospital,"Blue diamond building , pdt.solicitor road, 97, Rani Sati Rd",19.1848924,72.8514694,43,274076.5215,2122678.059,malad,"Vanita general hospital Blue diamond building , pdt.solicitor road, 97, Rani Sati Rd Malad ",Hospital
SAGE Hospital,"Ground Floor, Aditya Heritage Industrial Premises Co. Operative Society Elanza Avenue, Chincholi Bunder Rd",19.1786264,72.8341623,43,272247.3338,2122006.871,malad,"SAGE Hospital Ground Floor, Aditya Heritage Industrial Premises Co. Operative Society Elanza Avenue, Chincholi Bunder Rd Malad ",Hospital
Four Care Hospital,"Vishnu Krupa, Mahant Rd, Opp Gomantak Society",19.101489,72.8514348,43,273959.2792,2113444.429,vileparle,"Four Care Hospital Vishnu Krupa, Mahant Rd, Opp Gomantak Society VileParle ",Hospital
KLS Memorial Hospital,"Irla, Vile Parle (West)",19.1083973,72.8434243,43,273125.6434,2114219.624,vileparle,"KLS Memorial Hospital Irla, Vile Parle (West) VileParle ",Hospital
Rane Hospital,"Nanda Patkar Road, Vile Parle East",19.0941762,72.8485921,43,273650.1494,2112638.499,vileparle,"Rane Hospital Nanda Patkar Road, Vile Parle East VileParle ",Hospital
Parle Hospital - Shantaben K Shah,"B-202, Bajaj Road",19.101929,72.8429798,43,273070.0358,2113504.088,vileparle,"Parle Hospital - Shantaben K Shah B-202, Bajaj Road VileParle ",Hospital
Nanavati Super Speciality Hospital,"Swami Vivekananda Rd, near LIC",19.138635,72.8451519,43,273348.7229,2117565.035,vileparle,"Nanavati Super Speciality Hospital Swami Vivekananda Rd, near LIC VileParle ",Hospital
"Nityanand I.C.C.U, Nursing Home & Cancer Centre","A103/ 104, Saurabh Apt, Next To Bhuta High School, Shahaji Raje Marg",19.107571,72.848351,43,273643.006,2114121.76,vileparle,"Nityanand I.C.C.U, Nursing Home & Cancer Centre A103/ 104, Saurabh Apt, Next To Bhuta High School, Shahaji Raje Marg VileParle ",Hospital
Dr. Sumitrabai Wagh Maternity Hospital,"3, Park Rd",39.160676,-94.775449,15,346604.0492,4336108.347,vileparle,"Dr. Sumitrabai Wagh Maternity Hospital 3, Park Rd VileParle ",Hospital
Shirodkar Hospital,Paranjape Scheme B Rd Number 1,19.1053635,72.8521778,43,274042.7408,2113872.417,vileparle,Shirodkar Hospital Paranjape Scheme B Rd Number 1 VileParle ,Hospital
Advanced Multispeciality Hospital,"CMPH Medical College Campus, Natakar Gadkari Marg, Gulmohar Rd",19.1095785,72.8376138,43,272515.7589,2114357.945,vileparle,"Advanced Multispeciality Hospital CMPH Medical College Campus, Natakar Gadkari Marg, Gulmohar Rd VileParle ",Hospital
Ashish Maternity and Nursing Home Hospital,"Dixit Road Jai aptment, near Chetan School",19.0969469,72.847215,43,273508.983,2112947.027,vileparle,"Ashish Maternity and Nursing Home Hospital Dixit Road Jai aptment, near Chetan School VileParle ",Hospital
Nityanand Hospital,"1, Mahatma Gandhi Rd",22.4589938,88.3181445,45,635626.3308,2484228.633,vileparle,"Nityanand Hospital 1, Mahatma Gandhi Rd VileParle ",Hospital
Gala Eye Hospital,"261, Sumathi Bhawan, Vile Parle East, behind sathaye College",19.0996072,72.8492878,43,273730.759,2113238.869,vileparle,"Gala Eye Hospital 261, Sumathi Bhawan, Vile Parle East, behind sathaye College VileParle ",Hospital
Parle Eye Hospital,"102/6, Purushottam Niwas, Hanuman Rd",19.1034033,72.8494291,43,273750.7948,2113658.955,vileparle,"Parle Eye Hospital 102/6, Purushottam Niwas, Hanuman Rd VileParle ",Hospital
CritiCare Hospital,"Plot No 516, Besides SBI, Teli Gali",19.1170784,72.8506037,43,273893.0165,2115171.417,vileparle,"CritiCare Hospital Plot No 516, Besides SBI, Teli Gali VileParle ",Hospital
Jeevan Vikas Kendra Hospital,"B1, Jeevan Vikas Kendra Marg",19.111149,72.848469,43,273660.2964,2114517.73,vileparle,"Jeevan Vikas Kendra Hospital B1, Jeevan Vikas Kendra Marg VileParle ",Hospital
"Sujay Multispeciality Hospital - Cashless & 24 Hours Hospital in Vile Parle West | Joint & Spine Surgery | Piles, Fistula, Hernia Surgery in Vile Parle","Sujay Hospital 25, Gulmohar Park",19.1159389,72.8350141,43,272250.8825,2115065.499,vileparle,"Sujay Multispeciality Hospital - Cashless & 24 Hours Hospital in Vile Parle West | Joint & Spine Surgery | Piles, Fistula, Hernia Surgery in Vile Parle Sujay Hospital 25, Gulmohar Park VileParle ",Hospital
Masrani Hospital for women and MIMAS,"Matru Ashish, Lallubhai Park Rd, near Hotel Karl Residency",19.1130532,72.8445596,43,273251.4746,2114733.611,vileparle,"Masrani Hospital for women and MIMAS Matru Ashish, Lallubhai Park Rd, near Hotel Karl Residency VileParle ",Hospital
Surya Hospital,"Lallubhai Park Rd, Near Sai Jyote Building",19.1109908,72.8433986,43,273126.4785,2114506.787,vileparle,"Surya Hospital Lallubhai Park Rd, Near Sai Jyote Building VileParle ",Hospital
Holy Family Multispeciality Hospital Bandra,St Andrews Rd,34.0584402,-81.1620075,17,485049.2043,3768647.58,bandra,Holy Family Multispeciality Hospital Bandra St Andrews Rd Bandra ,Hospital
Lilavati Hospital And Research Centre,"A-791, Bandra Reclamation Rd",19.0511632,72.8292206,43,271552.3193,2107901.631,bandra,"Lilavati Hospital And Research Centre A-791, Bandra Reclamation Rd Bandra ",Hospital
"P. D. Hinduja Hospital & Medical Research Centre, Khar Facility","Marvela, 724, 11th Rd",19.0679148,72.8353697,43,272222.5716,2109748.22,bandra,"P. D. Hinduja Hospital & Medical Research Centre, Khar Facility Marvela, 724, 11th Rd Bandra ",Hospital
Sarvodaya Hospital And Research Center,"19-F, Ramdas Nayak Rd",19.0548895,72.835622,43,272231.3315,2108305.847,bandra,"Sarvodaya Hospital And Research Center 19-F, Ramdas Nayak Rd Bandra ",Hospital
Pali Hospital And Nursing Home,"Manuel Gonsalves Rd, Opposite St Joseph's Convent",19.0559967,72.8295007,43,271588.4285,2108436.39,bandra,"Pali Hospital And Nursing Home Manuel Gonsalves Rd, Opposite St Joseph's Convent Bandra ",Hospital
Shruti Nursing Home,"Dr Ambedkar Rd, opposite HSBC bank",19.0603859,72.8293195,43,271575.367,2108922.56,bandra,"Shruti Nursing Home Dr Ambedkar Rd, opposite HSBC bank Bandra ",Hospital
Parekh Eye Hospital,"1st Floor, Diamond Palace, Opposite Bandra Police Station, Hill Rd",19.0555207,72.8356163,43,272231.5937,2108375.736,bandra,"Parekh Eye Hospital 1st Floor, Diamond Palace, Opposite Bandra Police Station, Hill Rd Bandra ",Hospital
Kohinoor Hospital,"513, Linking Rd",19.064726,72.835087,43,272188.4531,2109395.552,bandra,"Kohinoor Hospital 513, Linking Rd Bandra ",Hospital
P.R. Heart Centre,"Peal Croft, Turner Rd",19.0591724,72.8336157,43,272025.9752,2108782.619,bandra,"P.R. Heart Centre Peal Croft, Turner Rd Bandra ",Hospital
pattaniak clinic,"502, Dr Ambedkar Rd",19.0207932,72.8501852,43,273718.2415,2104512.193,bandra,"pattaniak clinic 502, Dr Ambedkar Rd Bandra ",Hospital
Flavours Hospitality & Management Private Limited,"Gasper Enclave A, Bandra, Bandra",19.0616849,72.8290719,43,271551.0822,2109066.697,bandra,"Flavours Hospitality & Management Private Limited Gasper Enclave A, Bandra, Bandra Bandra ",Hospital
Municipal Hospital,JL Shirshekar Marg,19.0644026,72.8494438,43,273699.329,2109341.149,bandra,Municipal Hospital JL Shirshekar Marg Bandra ,Hospital
Ojas Eye Hospital,"And, Ojas Eye Hospital Ground Floor, Roseland Building Junction of Linking Road, Waterfield Road",19.063276,72.8345117,43,272125.9094,2109235.769,bandra,"Ojas Eye Hospital And, Ojas Eye Hospital Ground Floor, Roseland Building Junction of Linking Road, Waterfield Road Bandra ",Hospital
Kohinoor Hospital,"Kirol Road, Off, Lalbahadur Shastri Rd",19.0760717,72.8862889,43,277593.4825,2110585.849,kurla,"Kohinoor Hospital Kirol Road, Off, Lalbahadur Shastri Rd Kurla ",Hospital
City Hospital & Research Centre,"Sagar Palace A, City, Sonapur Ln",19.0810945,72.8819064,43,277138.9081,2111147.487,kurla,"City Hospital & Research Centre Sagar Palace A, City, Sonapur Ln Kurla ",Hospital
Noor Hospital,"Kurla Bus Depot Junction , Hallow Pul, Lal Bahadur Shastri Rd",19.076191,72.8779767,43,276718.7094,2110609.631,kurla,"Noor Hospital Kurla Bus Depot Junction , Hallow Pul, Lal Bahadur Shastri Rd Kurla ",Hospital
Habib Hospital,"Plot No. 345, 345/1 & 238, AH Wadia Marg, Old Agra Road, Off, Lal Bahadur Shastri Rd, opp. Shalimar Hotel",19.078228,72.8800213,43,276936.6504,2110832.54,kurla,"Habib Hospital Plot No. 345, 345/1 & 238, AH Wadia Marg, Old Agra Road, Off, Lal Bahadur Shastri Rd, opp. Shalimar Hotel Kurla ",Hospital
Amar Hospital,"Near, Kale Marg",19.0854098,72.8833622,43,277297.9122,2111623.375,kurla,"Amar Hospital Near, Kale Marg Kurla ",Hospital
Aryan Hospital & Medical Centre,"D-28, 29, Nehru Nagar, Station Road, Kurla (East)",19.0629614,72.8824341,43,277170.1971,2109139.326,kurla,"Aryan Hospital & Medical Centre D-28, 29, Nehru Nagar, Station Road, Kurla (East) Kurla ",Hospital
Dr. Mendadkar's Children Hospital,"C-101, Angolimala C.H.S., Next to hotel Sawali, Nehru nagar,, SG Barve Marg",19.062705,72.883185,43,277248.8995,2109109.986,kurla,"Dr. Mendadkar's Children Hospital C-101, Angolimala C.H.S., Next to hotel Sawali, Nehru nagar,, SG Barve Marg Kurla ",Hospital
Stamps maker,"Small gol blgd, Belgrami Rd, near bhabha hospital",19.0652412,72.8767002,43,276569.6612,2109399.019,kurla,"Stamps maker Small gol blgd, Belgrami Rd, near bhabha hospital Kurla ",Hospital
Mariyam Hospital,Kismat Nagar,19.077403,72.8762862,43,276542.3952,2110745.966,kurla,Mariyam Hospital Kismat Nagar Kurla ,Hospital
Arpan Hospital,New Mill Rd,40.8507051,-73.2162873,18,650354.5061,4523715.222,kurla,Arpan Hospital New Mill Rd Kurla ,Hospital
Sheetal Children Hospital,"218, Lal Bahadur Shastri Rd",19.0802793,72.8815012,43,277095.1672,2111057.753,kurla,"Sheetal Children Hospital 218, Lal Bahadur Shastri Rd Kurla ",Hospital
Masoom Children Hospital,Lal Bahadur Shastri Rd,19.1284065,72.9252516,43,281763.2927,2116330.635,kurla,Masoom Children Hospital Lal Bahadur Shastri Rd Kurla ,Hospital
Suraj Hospital,"Hans Residency Ground Floor, D Wing Halav Pool, Near Albarkat School",19.0742436,72.8837223,43,277320.8813,2110386.724,kurla,"Suraj Hospital Hans Residency Ground Floor, D Wing Halav Pool, Near Albarkat School Kurla ",Hospital
ROSHAN HOSPITAL & ICU,"Rajdeep Apartments, Kurla West, Lal Bahadur Shastri Rd",19.0830717,72.8828946,43,277245.5673,2111365.122,kurla,"ROSHAN HOSPITAL & ICU Rajdeep Apartments, Kurla West, Lal Bahadur Shastri Rd Kurla ",Hospital
V Care Hospital & Intensive Care Unit,"Rinisa Apartment, Saibaba Mandir Marg",19.0627702,72.8815493,43,277076.8009,2109119.284,kurla,"V Care Hospital & Intensive Care Unit Rinisa Apartment, Saibaba Mandir Marg Kurla ",Hospital
Alphine Life Solutions,"Office No. 701, Trade Center, Bandra Kurla Complex, Opp MTNL, Bandra (East)",19.0728829,72.8709266,43,275972.1718,2110252.396,kurla,"Alphine Life Solutions Office No. 701, Trade Center, Bandra Kurla Complex, Opp MTNL, Bandra (East) Kurla ",Hospital
Chintamani Hospital,"102, C Wing, Angolimala CHS, Near Sawli Hotel,",19.0626497,72.8832326,43,277253.8363,2109103.804,kurla,"Chintamani Hospital 102, C Wing, Angolimala CHS, Near Sawli Hotel, Kurla ",Hospital
Fauziya Hospital,"Aero View Housing Society, 209 Co-op Hsg society, Lal Bahadur Shastri Rd",19.0795861,72.8798549,43,276920.955,2110983.105,kurla,"Fauziya Hospital Aero View Housing Society, 209 Co-op Hsg society, Lal Bahadur Shastri Rd Kurla ",Hospital
"Horizon Hospital in Thane, Mumbai .","Malati Mohan Bunglow, Opp. Naupada Telephone Exchange, Mahatma Gandhi Rd",19.1868367,72.9676086,43,286295.5248,2122746.764,thane,"Horizon Hospital in Thane, Mumbai . Malati Mohan Bunglow, Opp. Naupada Telephone Exchange, Mahatma Gandhi Rd Thane ",Hospital
Bethany Hospital,Pokharan Rd Number 2,19.219001,72.9678008,43,286357.2991,2126307.282,thane,Bethany Hospital Pokharan Rd Number 2 Thane ,Hospital
"Jupiter Hospital, Thane","Service Rd, Eastern Express Hwy, Next to Viviana Mall",19.2087175,72.9715119,43,286734.3016,2125164.292,thane,"Jupiter Hospital, Thane Service Rd, Eastern Express Hwy, Next to Viviana Mall Thane ",Hospital
Hiranandani Hospital,"Tribeca Chs Ltd., Hamilton B, Regency Street Hiranandani Estate, Off Ghodbunder Road, Patlipada, Thane West",19.252558,72.9801821,43,287702.521,2130007.042,thane,"Hiranandani Hospital Tribeca Chs Ltd., Hamilton B, Regency Street Hiranandani Estate, Off Ghodbunder Road, Patlipada, Thane West Thane ",Hospital
Lifeline Hospital Thane,"Shiv Tower, 1st Floor, Opposite TJSB Bank, Khopat, Khopat Rd",19.202622,72.9721461,43,286793.1404,2124488.713,thane,"Lifeline Hospital Thane Shiv Tower, 1st Floor, Opposite TJSB Bank, Khopat, Khopat Rd Thane ",Hospital
"Horizon Prime Hospital - Best Multispecialty Hospital in Thane, Mumbai","Vibgyor, B- Wing, Patlipada, Ghodbunder Rd, near Hiranandani Estate, behind Ritu Nissan Showroom",19.2480742,72.9757693,43,287232.7676,2129516.063,thane,"Horizon Prime Hospital - Best Multispecialty Hospital in Thane, Mumbai Vibgyor, B- Wing, Patlipada, Ghodbunder Rd, near Hiranandani Estate, behind Ritu Nissan Showroom Thane ",Hospital
Lakecity Hospital,"Jai Siddhivinayak Premises, Ground Floor, Cadbury Junction, Khopat Rd",19.2037765,72.96905,43,286469.0024,2124620.317,thane,"Lakecity Hospital Jai Siddhivinayak Premises, Ground Floor, Cadbury Junction, Khopat Rd Thane ",Hospital
OrthoNova Hospital - Orthopedic Hospital In Thane,"Soham Plaza, Door No. 201 - 205, Junction, Ghodbunder Rd",19.2346217,72.9757213,43,287210.3738,2128026.861,thane,"OrthoNova Hospital - Orthopedic Hospital In Thane Soham Plaza, Door No. 201 - 205, Junction, Ghodbunder Rd Thane ",Hospital
"Mala Newborn & Children Hospital in Thane, Bhiwandi, kalwa and Ghodbunder Road","Rushabh Mall, 1st Floor, Plot No. 325, Wadekar Compound G.B. Road, Next to Silver Lounge Hotel, Chitalsar",19.2265241,72.9767429,43,287307.3675,2127129.166,thane,"Mala Newborn & Children Hospital in Thane, Bhiwandi, kalwa and Ghodbunder Road Rushabh Mall, 1st Floor, Plot No. 325, Wadekar Compound G.B. Road, Next to Silver Lounge Hotel, Chitalsar Thane ",Hospital
Risk Care Hospital,"1st floor, No. 7, Shirin Apartment, Lal Bahadur Shastri Road, Near Makhmali Talao, Khopat, Thane West",19.1996424,72.9719755,43,286771.3563,2124159.066,thane,"Risk Care Hospital 1st floor, No. 7, Shirin Apartment, Lal Bahadur Shastri Road, Near Makhmali Talao, Khopat, Thane West Thane ",Hospital
Aayush Multispeciality Hospital & Advanced Laparoscopy centre,"1st Floor , Marigold Apartment , Almeda Rd, Mahapalika Bhavan Rd",19.198433,72.9656643,43,286106.0063,2124032.921,thane,"Aayush Multispeciality Hospital & Advanced Laparoscopy centre 1st Floor , Marigold Apartment , Almeda Rd, Mahapalika Bhavan Rd Thane ",Hospital
Phoenix Hospital and ICU - Best Hospital In Thane,"1st Floor, Siddhivinayak Annex, Highland Gardens Rd, behind Bus Stop, behind Shruti park",19.2255232,72.9813121,43,287786.5703,2127012.778,thane,"Phoenix Hospital and ICU - Best Hospital In Thane 1st Floor, Siddhivinayak Annex, Highland Gardens Rd, behind Bus Stop, behind Shruti park Thane ",Hospital
Vedant Children Hospital,"Gate No. S3, F3 Building, Vedant Complex, Acharya Atre Marg, Eastern Express Highway, Tulsi Dham",19.2089998,72.9616564,43,285698.1626,2125207.652,thane,"Vedant Children Hospital Gate No. S3, F3 Building, Vedant Complex, Acharya Atre Marg, Eastern Express Highway, Tulsi Dham Thane ",Hospital
Medicare Hospital,"Nitin Company Crossing, Silver Plaza Building, Nirmaladevi Dighe Marg",19.2001178,72.9629775,43,285825.5987,2124222.74,thane,"Medicare Hospital Nitin Company Crossing, Silver Plaza Building, Nirmaladevi Dighe Marg Thane ",Hospital
Sunjeevan Hospital & I.C.U.,"1st Floor, Adnan Mahal, Kvilla, Near Holy Cross High School, Rabodi Rd",19.2028522,72.979868,43,287605.5762,2124504.757,thane,"Sunjeevan Hospital & I.C.U. 1st Floor, Adnan Mahal, Kvilla, Near Holy Cross High School, Rabodi Rd Thane ",Hospital
Currae Specialty Hospital,Thane - Bhiwandi Road near high street mall,19.2170565,72.980981,43,287740.8739,2126075.88,thane,Currae Specialty Hospital Thane - Bhiwandi Road near high street mall Thane ,Hospital
Currae Gynaec | IVF | Birthing Hospital,"Rosa Vista, MH SH 42, opp. Suraj Water Park",19.254564,72.9706659,43,286704.5655,2130240.78,thane,"Currae Gynaec | IVF | Birthing Hospital Rosa Vista, MH SH 42, opp. Suraj Water Park Thane ",Hospital
Sapphire Hospitals,"Kaveri Heights, Premnagar,, Kalwa West, Pune - Mumbai Hwy, Opposite Old Mhatre Talao",19.2031115,73.0039271,43,290136.2646,2124504.281,thane,"Sapphire Hospitals Kaveri Heights, Premnagar,, Kalwa West, Pune - Mumbai Hwy, Opposite Old Mhatre Talao Thane ",Hospital
Vedant Super Speciality Hospital G.B.Road,"Vedant Hospital, Ghodbunder Rd",19.2717195,72.9627958,43,285899.3833,2132149.686,thane,"Vedant Super Speciality Hospital G.B.Road Vedant Hospital, Ghodbunder Rd Thane ",Hospital
Kaushalya Medical Foundation Trust Hospital,"Namdeo Wadi Marg, opp. Nitin Company",19.2001465,72.9665521,43,286201.5972,2124221.524,thane,"Kaushalya Medical Foundation Trust Hospital Namdeo Wadi Marg, opp. Nitin Company Thane ",Hospital
Siddhivinayak Healthcare Pvt. Ltd.,"Ishaan building, 1st Floor, Khed Galli",19.0139669,72.8325506,43,271852.0672,2103779.259,prabhadevi,"Siddhivinayak Healthcare Pvt. Ltd. Ishaan building, 1st Floor, Khed Galli Prabhadevi ",Hospital
Prabhadevi M.N.P. Davakhana,Old Prabhadevi Rd,19.0149893,72.8253309,43,271093.2257,2103901.84,prabhadevi,Prabhadevi M.N.P. Davakhana Old Prabhadevi Rd Prabhadevi ,Hospital
Shreedhar Hospital,"Room No. 11, Anil Co-operative Society, M.T.N.L Lane, Near Prabhadevi Tele Exchange, Dadar West",19.0196889,72.8337804,43,271989.3742,2104411.149,prabhadevi,"Shreedhar Hospital Room No. 11, Anil Co-operative Society, M.T.N.L Lane, Near Prabhadevi Tele Exchange, Dadar West Prabhadevi ",Hospital
Life Care Hospital,"Shilpa Apartments, 1st Floor, Shankar Ghanekar Rd",19.0154874,72.833519,43,271956.1154,2103946.337,prabhadevi,"Life Care Hospital Shilpa Apartments, 1st Floor, Shankar Ghanekar Rd Prabhadevi ",Hospital
BMC Hospital,Old Prabhadevi Rd,19.0149893,72.8253309,43,271093.2257,2103901.84,prabhadevi,BMC Hospital Old Prabhadevi Rd Prabhadevi ,Hospital
Brihanmumbai Mahanagar Palika Hospital,"Swatantrya Veer Savarkar Road Opposite Aakar Showroom, near Gaman House",19.015062,72.8265868,43,271225.5722,2103908.253,prabhadevi,"Brihanmumbai Mahanagar Palika Hospital Swatantrya Veer Savarkar Road Opposite Aakar Showroom, near Gaman House Prabhadevi ",Hospital
Asha Surgical & Maternity Home,"2nd floor, Gyaneshwar Apartment New Prabhadevi road, SVS Rd",19.0148722,72.8277948,43,271352.5154,2103885.667,prabhadevi,"Asha Surgical & Maternity Home 2nd floor, Gyaneshwar Apartment New Prabhadevi road, SVS Rd Prabhadevi ",Hospital
Amrut Clinic,"Vicky Appartment, Prabhadevi, Mumbai - 400025",19.0159499,72.827324,43,271304.4148,2104005.593,prabhadevi,"Amrut Clinic Vicky Appartment, Prabhadevi, Mumbai - 400025 Prabhadevi ",Hospital
Punamiya Hospital,"101, Inder Tower, Gokhale Rd, near Tilak Bhavan",19.012085,72.833587,43,271958.6333,2103569.567,prabhadevi,"Punamiya Hospital 101, Inder Tower, Gokhale Rd, near Tilak Bhavan Prabhadevi ",Hospital
Keerti Medical Store,Sayani Rd,19.0128486,72.8312634,43,271714.9964,2103657.122,prabhadevi,Keerti Medical Store Sayani Rd Prabhadevi ,Hospital
Shree Siddhivinayak Nursing Home,"NT Bank of Baroda, Ram Mansion, Ground floor, Room, no.1, SK Bole Marg",19.0179198,72.8324025,43,271841.8693,2104217.08,prabhadevi,"Shree Siddhivinayak Nursing Home NT Bank of Baroda, Ram Mansion, Ground floor, Room, no.1, SK Bole Marg Prabhadevi ",Hospital
Family Welfare Center,"1st Floor, Near Gaman House, S.V.S. Road",19.0150034,72.826564,43,271223.0911,2103901.795,prabhadevi,"Family Welfare Center 1st Floor, Near Gaman House, S.V.S. Road Prabhadevi ",Hospital
Jai Ganesh Clinic,"Shop 4, Om Chintamani C H S, Khed Gali, Prabhadevi, Prabhadevi",19.013629,72.833325,43,271933.1511,2103740.844,prabhadevi,"Jai Ganesh Clinic Shop 4, Om Chintamani C H S, Khed Gali, Prabhadevi, Prabhadevi Prabhadevi ",Hospital
Worli Hospital For Women,"Pupala Sadan, No-259, Dr Annie Besant Rd",19.0129205,72.8227043,43,270813.8059,2103676.224,prabhadevi,"Worli Hospital For Women Pupala Sadan, No-259, Dr Annie Besant Rd Prabhadevi ",Hospital
Satellite Health Care,Swatantrya Veer Savarkar Road,19.021482,72.8334834,43,271960.5485,2104610.05,prabhadevi,Satellite Health Care Swatantrya Veer Savarkar Road Prabhadevi ,Hospital
Dr Shilpa Shetty's Multispecialty Clinic,"matruchaya apartments, Hatiskar Marg",19.0166815,72.8248914,43,271049.2645,2104089.758,prabhadevi,"Dr Shilpa Shetty's Multispecialty Clinic matruchaya apartments, Hatiskar Marg Prabhadevi ",Hospital
Ashtavinayak Maternity Surgical And Eye Hospital,"G/N 94,104, Ramgiri Heights College St Dadar West",19.0203954,72.8340661,43,272020.4217,2104488.995,prabhadevi,"Ashtavinayak Maternity Surgical And Eye Hospital G/N 94,104, Ramgiri Heights College St Dadar West Prabhadevi ",Hospital
Terna Speciality Hospital & Research Centre,"Plot no 12, Sector 22 Railway Station, opp. Nerul",19.0315617,73.0162449,43,291216.3188,2105498.627,nerul,"Terna Speciality Hospital & Research Centre Plot no 12, Sector 22 Railway Station, opp. Nerul Nerul ",Hospital
"Manak Health Care Hospital, Nerul","Plot No. 2, Sector – 8, Phase II, Near Rajiv Gandhi Bridge, Nerul West",19.0432532,73.0178564,43,291400.5884,2106790.97,nerul,"Manak Health Care Hospital, Nerul Plot No. 2, Sector – 8, Phase II, Near Rajiv Gandhi Bridge, Nerul West Nerul ",Hospital
D Y Patil Hospital,Ayyappa Rd,19.0371364,73.0243361,43,292075.1019,2106106.147,nerul,D Y Patil Hospital Ayyappa Rd Nerul ,Hospital
"Mangal Prabhu Multispeciality Hospital, Juinagar Navi Mumbai","Plot No. 27, Sector - 24 Near To Juinagar (W, Sanpada Railway Station Road",19.0518161,73.0173597,43,291359.0087,2107739.481,nerul,"Mangal Prabhu Multispeciality Hospital, Juinagar Navi Mumbai Plot No. 27, Sector - 24 Near To Juinagar (W, Sanpada Railway Station Road Nerul ",Hospital
Shushrusha Hospital,"Plot No 22/A, Phase III, Palm Beach Road, Sector 6, Nerul West",19.0432029,73.0096539,43,290537.0252,2106795.172,nerul,"Shushrusha Hospital Plot No 22/A, Phase III, Palm Beach Road, Sector 6, Nerul West Nerul ",Hospital
Aryan Hospital,"Sector 12, Nerul Road",19.0387295,73.0145411,43,291045.9142,2106294.136,nerul,"Aryan Hospital Sector 12, Nerul Road Nerul ",Hospital
Sai Hospital,"3/C, Jagatguru Aadi Shankracharya Marg",19.03418,73.019385,43,291550.1773,2105784.744,nerul,"Sai Hospital 3/C, Jagatguru Aadi Shankracharya Marg Nerul ",Hospital
Raj Hospital,"Isha Complex, Building No.B-105",19.0341278,73.0193581,43,291547.2801,2105778.997,nerul,"Raj Hospital Isha Complex, Building No.B-105 Nerul ",Hospital
Harish Hospital,"Near, Plot No. 22, Sector No 3 C, Shivaji Chowk, Rajiv Gandhi Bridge",19.043634,73.0181299,43,291429.8564,2106832.799,nerul,"Harish Hospital Near, Plot No. 22, Sector No 3 C, Shivaji Chowk, Rajiv Gandhi Bridge Nerul ",Hospital
Maasaheb Meenatai Thackeray Hospital,"Park Avenue Road, Kamaladevi Birajdar Marg",19.0326854,73.0221854,43,291843.1349,2105615.968,nerul,"Maasaheb Meenatai Thackeray Hospital Park Avenue Road, Kamaladevi Birajdar Marg Nerul ",Hospital
New Manak Healthcare Hospital,Plot no 2 Sect 8 Near Rajiv Gandi Bridge Nerul (W),19.0416096,73.0171104,43,291319.9997,2106609.909,nerul,New Manak Healthcare Hospital Plot no 2 Sect 8 Near Rajiv Gandi Bridge Nerul (W) Nerul ,Hospital
Sanjeevani Hospital,"Near Sarsola Bus Depot, Bhawani Marg, Nerul West",19.039835,73.014534,43,291046.5507,2106416.524,nerul,"Sanjeevani Hospital Near Sarsola Bus Depot, Bhawani Marg, Nerul West Nerul ",Hospital
SDM Hospital & Aura Lifestyle,"83, Sector 19A Nerul Rd",19.0276803,73.0236133,43,291987.2284,2105060.209,nerul,"SDM Hospital & Aura Lifestyle 83, Sector 19A Nerul Rd Nerul ",Hospital
Vedaant Hospital,Plot No 14 Sect 25 Opp Haware Centurion Mall Seawoods ( W),19.0232874,73.0220793,43,291820.2508,2104575.731,nerul,Vedaant Hospital Plot No 14 Sect 25 Opp Haware Centurion Mall Seawoods ( W) Nerul ,Hospital
Samartha Health Care Hospital and Pathology Lab,"Sector 19A Nerul Rd, Near dmart",19.0311954,73.0219966,43,291821.4006,2105451.248,nerul,"Samartha Health Care Hospital and Pathology Lab Sector 19A Nerul Rd, Near dmart Nerul ",Hospital
Panvel Hospital,"Uran Naka, Uran Rd",18.9826646,73.1076843,43,300784.6124,2099979.704,panvel,"Panvel Hospital Uran Naka, Uran Rd Panvel ",Hospital
"Lifeline Hospital,","DISTRICT :, OPP. S.T. STAND, राष्ट्रीय महामार्ग ४",18.9914814,73.1159905,43,301669.7517,2100946.301,panvel,"Lifeline Hospital, DISTRICT :, OPP. S.T. STAND, राष्ट्रीय महामार्ग ४ Panvel ",Hospital
Ashtvinayak Hospital,"Plot 10, Sector -6, Khanda Colony, near Khandeshwar Lake",19.006134,73.1097261,43,301027.5338,2102575.352,panvel,"Ashtvinayak Hospital Plot 10, Sector -6, Khanda Colony, near Khandeshwar Lake Panvel ",Hospital
"More Hospital and ICU, New Panvel",Khanda Colony,19.0094449,73.1114462,43,301212.5817,2102939.908,panvel,"More Hospital and ICU, New Panvel Khanda Colony Panvel ",Hospital
Dr. Patil's Hospital Panvel,"Aaditya, 102/5, Near Hotel Garden Thana Naka",18.9972999,73.1107745,43,301127.4189,2101596.27,panvel,"Dr. Patil's Hospital Panvel Aaditya, 102/5, Near Hotel Garden Thana Naka Panvel ",Hospital
"Sub- District Hospital, Panvel, Raigad","Uran Naka, Uran Rd",18.9826646,73.1076843,43,300784.6124,2099979.704,panvel,"Sub- District Hospital, Panvel, Raigad Uran Naka, Uran Rd Panvel ",Hospital
Gandhi Hospital,"142, MCCH Society, near Kohinoor Technical Institute",18.9876783,73.115456,43,301608.9613,2100525.919,panvel,"Gandhi Hospital 142, MCCH Society, near Kohinoor Technical Institute Panvel ",Hospital
Paramount Hospital,near Rupali Theatre,21.2138919,72.7917121,43,270781.6377,2347418.875,panvel,Paramount Hospital near Rupali Theatre Panvel ,Hospital
Sahastrabudhe Hospital and I.C.U,"Kanak Sarovar Co-operative Housing Society, 77/4-5, Vidhya, Swami Nityanand Rd",18.9946456,73.1082797,43,300861.5649,2101305.273,panvel,"Sahastrabudhe Hospital and I.C.U Kanak Sarovar Co-operative Housing Society, 77/4-5, Vidhya, Swami Nityanand Rd Panvel ",Hospital
Jeevan Jyot Hospital,"Plot 59-C, Ground & 1st Floor, Shubh Avenue Building, near Khandeshwar Railway Station",19.0134588,73.0948168,43,299466.4916,2103403.121,panvel,"Jeevan Jyot Hospital Plot 59-C, Ground & 1st Floor, Shubh Avenue Building, near Khandeshwar Railway Station Panvel ",Hospital
"Niramay Hospital - Multispeciality, ICU and Maternity Hospital","Plot 148, VB Phadke Road, Middle class housing society, Chhatrapati Shivaji Maharaj Chowk",19.045806,72.9091618,43,279961.091,2107206.344,panvel,"Niramay Hospital - Multispeciality, ICU and Maternity Hospital Plot 148, VB Phadke Road, Middle class housing society, Chhatrapati Shivaji Maharaj Chowk Panvel ",Hospital
Thombare Hospital,"1st Floor, Riddhi Complex, Khanda Colony, Panvel",19.0058059,73.1106948,43,301129.1395,2102537.937,panvel,"Thombare Hospital 1st Floor, Riddhi Complex, Khanda Colony, Panvel Panvel ",Hospital
UNNATI HOSPITAL AND ICU,"First Floor, JK Plaza, MTNL Rd",18.9867872,73.112407,43,301286.835,2100430.718,panvel,"UNNATI HOSPITAL AND ICU First Floor, JK Plaza, MTNL Rd Panvel ",Hospital
Sai Child Care Hospital,"4/5, Vijay Marg, Opp. Shreeyash Hospital, Sector 19, New Panvel East, Panvel",18.9959958,73.1193784,43,302031.839,2101442.207,panvel,"Sai Child Care Hospital 4/5, Vijay Marg, Opp. Shreeyash Hospital, Sector 19, New Panvel East, Panvel Panvel ",Hospital
Yash Hospital,"Trimurty Arcade, Uran Naka, opp fish market",18.982302,73.1081893,43,300837.3609,2099938.994,panvel,"Yash Hospital Trimurty Arcade, Uran Naka, opp fish market Panvel ",Hospital
Dr Shah's Superspeciality Hospital,plot no 3,37.2232322,-95.7025697,15,260216.7148,4123059.08,panvel,Dr Shah's Superspeciality Hospital plot no 3 Panvel ,Hospital
pritam hospital,"839, Mahatma Gandhi Rd",18.984518,73.110712,43,301105.6498,2100181.443,panvel,"pritam hospital 839, Mahatma Gandhi Rd Panvel ",Hospital