Restaurent Name,Address,City,Final Address,Latitude,Longitude,Zone,Easting,Northing,Type
Nashtawaala,Vasai Railway Station Rd,vasairoad,"Vasai Railway Station Rd ,  vasairoad",19.3836174,72.830838,43,272181.4847,2144706.516,Restaurent
Utsav Pure Veg,"Shop No.14, Gokul Park, Manav Mandir Landmark:- Near old Swaminarayan Mandir Off",vasairoad,"Shop No.14, Gokul Park, Manav Mandir Landmark:- Near old Swaminarayan Mandir Off ,  vasairoad",19.3836174,72.8251915,43,271588.2317,2144713.984,Restaurent
Dandekar Lunch Home,"Shop No. 9, Periyar CHS, MG Road, Vasai Road West, opp. D'Mart",vasairoad,"Shop No. 9, Periyar CHS, MG Road, Vasai Road West, opp. D'Mart ,  vasairoad",19.3836174,72.8149596,43,270513.2065,2144727.565,Restaurent
Aarna Dine inn,"DC Club, Papdy - Bangli Rd, behind Big Bazaar",vasairoad,"DC Club, Papdy - Bangli Rd, behind Big Bazaar ,  vasairoad",19.3836174,72.812594,43,270264.6615,2144730.714,Restaurent
Idli Culture,"B-109, Neel Nayan Bldg, near deewan market",vasairoad,"B-109, Neel Nayan Bldg, near deewan market ,  vasairoad",19.3836174,72.8371699,43,272846.7475,2144698.165,Restaurent
Mosshi The Asian Kitchen,"Shop no 28 Lotus Apartment, near K Moviestar Star Cinema, Kaul's Heritage City",vasairoad,"Shop no 28 Lotus Apartment, near K Moviestar Star Cinema, Kaul's Heritage City ,  vasairoad",19.3836174,72.8137457,43,270385.6665,2144729.181,Restaurent
The Small Town's Diner,"Shop F-7, Jayraj Nagar CHS, 100 Feet Rd, opposite Advanced Dental Care",vasairoad,"Shop F-7, Jayraj Nagar CHS, 100 Feet Rd, opposite Advanced Dental Care ,  vasairoad",19.3836174,72.8237833,43,271440.2781,2144715.849,Restaurent
Seasons Vasai,"Bad Boyz 101 - 107, 1st Floor, Dheeraj Shopping Centre, Evershine Last Stop",vasairoad,"Bad Boyz 101 - 107, 1st Floor, Dheeraj Shopping Centre, Evershine Last Stop ,  vasairoad",19.3836174,72.8351704,43,272636.6697,2144700.799,Restaurent
MY DREAM CAFE,"60 Feet Rd, opp. ganesh mandir",vasairoad,"60 Feet Rd, opp. ganesh mandir ,  vasairoad",19.3836174,72.8291821,43,272007.5067,2144708.704,Restaurent
Vasai Local Restaurant,"Vasai local restaurant Marry villa roof top, near MNS office",vasairoad,"Vasai local restaurant Marry villa roof top, near MNS office ,  vasairoad",19.3836174,72.8439773,43,273561.9664,2144689.214,Restaurent
Kerala Cafe,"Ground Floor, Vardan Apartment, St Alphonsa Church Rd",vasairoad,"Ground Floor, Vardan Apartment, St Alphonsa Church Rd ,  vasairoad",19.3836174,72.8224015,43,271295.098,2144717.681,Restaurent
The Oceanus Theme Restaurant,"1st floor, Imperial Classic building, Bhabola Naka",vasairoad,"1st floor, Imperial Classic building, Bhabola Naka ,  vasairoad",19.3836174,72.815207,43,270539.1999,2144727.236,Restaurent
Rolls On Coals,"Shop No 5, Moti Niwas, Ambadi Rd, opposite Kotak Mahindra Bank",vasairoad,"Shop No 5, Moti Niwas, Ambadi Rd, opposite Kotak Mahindra Bank ,  vasairoad",19.3836174,72.8274649,43,271827.0881,2144710.975,Restaurent
Rolls On Coals,"Rashmi Divya Complex, B-12, Nalasopara - Vasai Link Rd",vasairoad,"Rashmi Divya Complex, B-12, Nalasopara - Vasai Link Rd ,  vasairoad",19.3836174,72.8267847,43,271755.6224,2144711.875,Restaurent
Kubera Veg Restaurant,"Dewan Tower, Ground Floor, Vasai Station Rd, opposite Parvati Cinema",vasairoad,"Dewan Tower, Ground Floor, Vasai Station Rd, opposite Parvati Cinema ,  vasairoad",19.3836174,72.828915,43,271979.4437,2144709.057,Restaurent
Anand Restaurant,"Shree Sankalp Siddhi Complex Shop no.1&2,below platinium hospital, opposite Range office",vasairoad,"Shree Sankalp Siddhi Complex Shop no.1&2,below platinium hospital, opposite Range office ,  vasairoad",19.3836174,72.8498863,43,274182.793,2144681.468,Restaurent
Gajali malvani katta,"Regal Complex, near Acp office",vasairoad,"Regal Complex, near Acp office ,  vasairoad",19.3836174,72.8295108,43,272042.0417,2144708.269,Restaurent
Sarkar Misal - Mira Road (सरकार मिसळ आणि चहा),"Shop No - 7, Ostwal Point, Kanakia Rd",miraroad,"Shop No - 7, Ostwal Point, Kanakia Rd ,  miraroad",19.3836174,72.8752605,43,276848.7012,2144648.445,Restaurent
Modern Lunch Home,"Shop No.17 A wing Shanti shopping Centre, opp. Railway station",miraroad,"Shop No.17 A wing Shanti shopping Centre, opp. Railway station ,  miraroad",19.3836174,72.8634363,43,275606.4109,2144663.784,Restaurent
Grill House Junction,"Shop No 9, Woodland CHS, opp. Miraj Wines",miraroad,"Shop No 9, Woodland CHS, opp. Miraj Wines ,  miraroad",19.3836174,72.8666926,43,275948.5295,2144659.551,Restaurent
Belfast Bistro,"11, Jangid Arcadia, Kanakia Rd, near Bhairav Residency, opp. JANGID ENCLAVE TULIP",miraroad,"11, Jangid Arcadia, Kanakia Rd, near Bhairav Residency, opp. JANGID ENCLAVE TULIP ,  miraroad",19.3836174,72.8743921,43,276757.4644,2144649.569,Restaurent
Mira Kitchen,"Shop no. 5, G wing, Rashmi tanmay Building, Beverly Park Rd",miraroad,"Shop no. 5, G wing, Rashmi tanmay Building, Beverly Park Rd ,  miraroad",19.3836174,72.8721582,43,276522.7638,2144652.461,Restaurent
AANYO'S,"Shop no.4, E Wing, Neel Vasundhara, Mira Rd E, near Amber Plaza",miraroad,"Shop no.4, E Wing, Neel Vasundhara, Mira Rd E, near Amber Plaza ,  miraroad",19.3836174,72.8735134,43,276665.1454,2144650.706,Restaurent
Food Chakra,"Shop no 7, D Holy Complex, Mira Bhayander Road, near Deepak Hospital Rd",miraroad,"Shop no 7, D Holy Complex, Mira Bhayander Road, near Deepak Hospital Rd ,  miraroad",19.2926795,72.8615909,43,275288.0376,2134598.227,Restaurent
Mcooozaaa,"shop no.5, Asmita Orient, Near Rassaz Theatre",miraroad,"shop no.5, Asmita Orient, Near Rassaz Theatre ,  miraroad",19.2842281,72.8630122,43,275425.9145,2133660.715,Restaurent
Gup Shup - The Fast Food,"Shop No.1, Poonam Cluster Phase - 3 Srishti Complex, Opp. Surya Shopping Centre",miraroad,"Shop No.1, Poonam Cluster Phase - 3 Srishti Complex, Opp. Surya Shopping Centre ,  miraroad",19.2736254,72.870184,43,276165.4528,2132477.6,Restaurent
Sagar fastfood,"shop no. 3, Mansarovar saraswati chs ltd, road, opposite brand factory",miraroad,"shop no. 3, Mansarovar saraswati chs ltd, road, opposite brand factory ,  miraroad",19.27859,72.8794365,43,277144.92,2133015.319,Restaurent
Buzz Fast Food,"Shop no.11, Poonam Estate Cluster2, Nityanand Nagar,Nr Balaji Hotel, Mira, Road",miraroad,"Shop no.11, Poonam Estate Cluster2, Nityanand Nagar,Nr Balaji Hotel, Mira, Road ,  miraroad",19.2761688,72.8712714,43,276283.2304,2132757.78,Restaurent
SPICE LOVE CHINESE RESTAURANT,"K D Empire, SPICE LOVE, Kanakia Rd, NEAR TIWARI ENGINEERING COLLAGE",miraroad,"K D Empire, SPICE LOVE, Kanakia Rd, NEAR TIWARI ENGINEERING COLLAGE ,  miraroad",19.3002159,72.8762326,43,276837.4232,2135413.668,Restaurent
Libon - Fast Food,"Shop No. 8 Asmita Singapore plaza, opposite Rassaz Circle",miraroad,"Shop No. 8 Asmita Singapore plaza, opposite Rassaz Circle ,  miraroad",19.2836987,72.8629814,43,275421.9543,2133602.144,Restaurent
Ratnagiri Malvani Non Veg Restaurant Mira Road,"Golden Empire Building, NH School Road, Near Shivar Garden, Mira Road East",miraroad,"Golden Empire Building, NH School Road, Near Shivar Garden, Mira Road East ,  miraroad",19.2881034,72.8645643,43,275594.3667,2134087.746,Restaurent
Laarousse the food encyclopedia,Shop no 26/27 shanti plaza blg 37 opp bank of India,miraroad,"Shop no 26/27 shanti plaza blg 37 opp bank of India ,  miraroad",19.2805273,72.8650256,43,275632.534,2133248.386,Restaurent
Puregonic Kitchen Miraroad,"S5, Jangid Tower, Shop No 15/17, Khau Gali, behind J & K Bank",miraroad,"S5, Jangid Tower, Shop No 15/17, Khau Gali, behind J & K Bank ,  miraroad",19.2796739,72.8705262,43,276209.6497,2133146.795,Restaurent
Darbar E Pakwan,Dreamland shop no.2 building b-30 shantinagar chs ltd,miraroad,"Dreamland shop no.2 building b-30 shantinagar chs ltd ,  miraroad",19.281565,72.8584501,43,274942.6711,2133371.794,Restaurent
GCC Hotel and Club | Hotel in Mira Road | Restaurants in Mira Road,·,miraroad,"· ,  miraroad",19.2856374,72.8691092,43,276068.7929,2133808.853,Restaurent
Keshav Pani Puri & fast food,"Shop -13 B-11/12 poonam nagar face -3, Srishti Rd, opp. Radha krishna hotel",miraroad,"Shop -13 B-11/12 poonam nagar face -3, Srishti Rd, opp. Radha krishna hotel ,  miraroad",19.137309,72.8677942,43,275729.3677,2117388.998,Restaurent
"Country Kitchen Bistro Thai, Mexican, Italian & Lebanese","43/44, poonam cluster estate 2, opp balaji hotel, om shanti chowk",miraroad,"43/44, poonam cluster estate 2, opp balaji hotel, om shanti chowk ,  miraroad",19.2761688,72.8712714,43,276283.2304,2132757.78,Restaurent
Simply Malvani Seafood Restaurant,"14, Sheetal Indraprastha CHS, MTNL Road Sheetal Nagar, Nr. SBI, opp. MTNL Office",miraroad,"14, Sheetal Indraprastha CHS, MTNL Road Sheetal Nagar, Nr. SBI, opp. MTNL Office ,  miraroad",19.282851,72.8668834,43,275831.0081,2133503.243,Restaurent
Geeta'z veg hub,"RatnaKunj, Shop No.4",dahisar,"RatnaKunj, Shop No.4 ,  dahisar",19.4945979,72.8604097,43,275441.1992,2156954.773,Restaurent
Dahisar Tadka,Swami Vivekananda Rd,dahisar,"Swami Vivekananda Rd ,  dahisar",19.2395501,72.8582967,43,274869.1623,2128720.446,Restaurent
Pentaafood,"Shop No 11, Saflta Apartment , Near Shiv MAndir Near Fressia Hights",dahisar,"Shop No 11, Saflta Apartment , Near Shiv MAndir Near Fressia Hights ,  dahisar",19.2580401,72.8647761,43,275575.672,2130759.115,Restaurent
Food King Restaurant Dahisar,"Shop No. 2 & 3, Chhatrapati Shivaji Rd, near Jari Mari",dahisar,"Shop No. 2 & 3, Chhatrapati Shivaji Rd, near Jari Mari ,  dahisar",19.2543247,72.8651971,43,275614.8808,2130347.234,Restaurent
R Hapi Brewing Co,"Tarasingh Compound, Penkarpada Road W. E. Highway Dahisar Checknaka",dahisar,"Tarasingh Compound, Penkarpada Road W. E. Highway Dahisar Checknaka ,  dahisar",19.257806,72.871869,43,276321.1295,2130724.042,Restaurent
Saishas Veg Treat,"Rajendra Park, Chhatrapati Shivaji Rd, near AFC",dahisar,"Rajendra Park, Chhatrapati Shivaji Rd, near AFC ,  dahisar",19.2599848,72.8615405,43,275238.1192,2130978.603,Restaurent
Hotel Ram Krishna,"Dahisar Darshan Building, Wamanrao Sawant Rd",dahisar,"Dahisar Darshan Building, Wamanrao Sawant Rd ,  dahisar",19.2514603,72.8608529,43,275154.1972,2130035.732,Restaurent
Shree Krishna Family Restaurant (Dahisar East),"Tara Compound,Western Express Highway,Dahisar Chek Naka,Dahisar East",dahisar,"Tara Compound,Western Express Highway,Dahisar Chek Naka,Dahisar East ,  dahisar",19.257806,72.871869,43,276321.1295,2130724.042,Restaurent
Hot & Spicy,near Avdhut Nagar,dahisar,"near Avdhut Nagar ,  dahisar",19.2566902,72.8611481,43,275192.3679,2130614.361,Restaurent
Ravindra Hotel,"Amit Apartments,, C/1, Swami Vivekananda Marg, Near Dena Bank - Dahisar East Branch",dahisar,"Amit Apartments,, C/1, Swami Vivekananda Marg, Near Dena Bank - Dahisar East Branch ,  dahisar",19.2511891,72.8634763,43,275429.6743,2130002.312,Restaurent
Lotus Court Restaurant & Bar,"A2, 101 & 102, Orchid Plaza, RT Road, Dahisar East",dahisar,"A2, 101 & 102, Orchid Plaza, RT Road, Dahisar East ,  dahisar",19.2524355,72.863087,43,275390.4377,2130140.807,Restaurent
Irene's Food Mania,"Shop no v-14 Ekta vivek CHSL, Off Link Rd",dahisar,"Shop no v-14 Ekta vivek CHSL, Off Link Rd ,  dahisar",19.25771,72.852095,43,274241.8727,2130739.015,Restaurent
Satkar Restaurant - Dahisar,"Palak Pluto CHSL, New Link Rd, next to RTO",dahisar,"Palak Pluto CHSL, New Link Rd, next to RTO ,  dahisar",19.2617053,72.8518058,43,274216.9377,2131181.719,Restaurent
The Fusion Kitchen,"Shop no 1, Holy Cross Rd, opp. Veda Apartment",dahisar,"Shop no 1, Holy Cross Rd, opp. Veda Apartment ,  dahisar",19.2548544,72.8489556,43,273907.864,2130426.951,Restaurent
West Coast Diner,"Shop No.10/11, Ekta Vivek, New Link Rd",dahisar,"Shop No.10/11, Ekta Vivek, New Link Rd ,  dahisar",19.2576951,72.8517376,43,274204.2735,2130737.83,Restaurent
Mondo,"Shop No. 1, Omkareshwar, New Link Road, Kandarpada, Dahisar West",dahisar,"Shop No. 1, Omkareshwar, New Link Road, Kandarpada, Dahisar West ,  dahisar",19.2580177,72.8534095,43,274380.5069,2130771.371,Restaurent
Royale Master Chef Finedine & Banquet,"Gagangiri Complex, Kandarpada Rd",dahisar,"Gagangiri Complex, Kandarpada Rd ,  dahisar",19.2583941,72.8531634,43,274355.146,2130813.363,Restaurent
DK Dahisar Koliwada,"Dk Dahisar Koliwada Silver wines, Bharucha Rd, near sarswaat bank",dahisar,"Dk Dahisar Koliwada Silver wines, Bharucha Rd, near sarswaat bank ,  dahisar",19.2514706,72.8587088,43,274928.7622,2130039.651,Restaurent
Annapurna Restaurant,LT Road Near Railway station Dahisar West,dahisar,"LT Road Near Railway station Dahisar West ,  dahisar",19.2494357,72.8596279,43,275022.6282,2129813.172,Restaurent
Sizzling Spices,"Shop no 4, Ground Floor, Laxman Mhatre Road, Suresh Thakkar CHS, Circle, opp. Majestic Restaurant",dahisar,"Shop no 4, Ground Floor, Laxman Mhatre Road, Suresh Thakkar CHS, Circle, opp. Majestic Restaurant ,  dahisar",19.2545506,72.8538795,43,274425.1809,2130386.911,Restaurent
Dahisar Tadka,Swami Vivekananda Rd,dahisar,"Swami Vivekananda Rd ,  dahisar",19.2395501,72.8582967,43,274869.1623,2128720.446,Restaurent
The Shawarma Treat,"Shagun Hotel, Shop 6 Hemali apartment J.S.M Road",dahisar,"Shagun Hotel, Shop 6 Hemali apartment J.S.M Road ,  dahisar",19.4945979,72.8604097,43,275441.1992,2156954.773,Restaurent
Sarkar Misal - Mira Road (सरकार मिसळ आणि चहा),"Shop No - 7, Ostwal Point, Kanakia Rd",borivali,"Shop No - 7, Ostwal Point, Kanakia Rd ,  borivali",19.2903773,72.8731209,43,276496.9648,2134328.435,Restaurent
BHAJIYAWALA & CO.,"Bhattad Tower, 08, GF, RM Bhattad Rd, opp. KORAKENDRA GROUND",borivali,"Bhattad Tower, 08, GF, RM Bhattad Rd, opp. KORAKENDRA GROUND ,  borivali",19.2204704,72.8455038,43,273497.7303,2126624.717,Restaurent
Sumeruu,"Shop no 6 & 7 Bhavdevi Compound, Holy Cross Rd, opp. Veda Apartment",borivali,"Shop no 6 & 7 Bhavdevi Compound, Holy Cross Rd, opp. Veda Apartment ,  borivali",19.2558986,72.8534347,43,274380.2563,2130536.729,Restaurent
CHHOLAY,"24, 2nd floor, Jalaram Nagar, Ganjawala Lane, Chamunda Cir",borivali,"24, 2nd floor, Jalaram Nagar, Ganjawala Lane, Chamunda Cir ,  borivali",19.2339904,72.8553788,43,274554.7321,2128108.706,Restaurent
Ten One Borivali,"Shop no.9/10, AHCL HOMES Opposite of shimpoli telephone exchange, next to Airtel gallary",borivali,"Shop no.9/10, AHCL HOMES Opposite of shimpoli telephone exchange, next to Airtel gallary ,  borivali",19.2238128,72.8414481,43,273075.7875,2127000.05,Restaurent
Makhan Maar Ke,"Shop No. 13, Shivkrupa Shivdham CHS, Satya Nagar Rd, near bhagwati veg resturant",borivali,"Shop No. 13, Shivkrupa Shivdham CHS, Satya Nagar Rd, near bhagwati veg resturant ,  borivali",19.2176893,72.8416521,43,273088.8301,2126321.836,Restaurent
Mexichino,"laxmi Building, Lucky, near Veer Savarkar Garden, opp. Bhatia Hall",borivali,"laxmi Building, Lucky, near Veer Savarkar Garden, opp. Bhatia Hall ,  borivali",19.2277318,72.8484853,43,273821.2364,2127424.761,Restaurent
Narayan Family Restaurant,·,borivali,"· ,  borivali",19.2307329,72.856673,43,274686.384,2127746.384,Restaurent
Mangalam Veg Restaurant,"Shop No. 13, Shivkrupa Shivdham CHS, Satya Nagar Rd",borivali,"Shop No. 13, Shivkrupa Shivdham CHS, Satya Nagar Rd ,  borivali",19.217646,72.8415539,43,273078.4428,2126317.171,Restaurent
Continese,"Shop no 4, Umeda Ashram Rd, near Pantaloons showroom",borivali,"Shop no 4, Umeda Ashram Rd, near Pantaloons showroom ,  borivali",19.223942,72.853851,43,274380.3382,2126998.212,Restaurent
Charcoal Eats Borivali,"Meghkamal, Holy Cross Rd",borivali,"Meghkamal, Holy Cross Rd ,  borivali",19.2497644,72.8490209,43,273907.7511,2129863.34,Restaurent
Beirut Grill House,"Shop no 12, Ganesh Siddhi 2, Ram Mandir Rd, near Vazira Naka",borivali,"Shop no 12, Ganesh Siddhi 2, Ram Mandir Rd, near Vazira Naka ,  borivali",19.2262516,72.8448145,43,273433.1679,2127265.665,Restaurent
Su-Veg Restaurant,"Ganesh Bhavan, Near Indraprastha Shopping Centre, S.V Road,",borivali,"Ganesh Bhavan, Near Indraprastha Shopping Centre, S.V Road, ,  borivali",19.2269649,72.8560104,43,274611.5602,2127330.082,Restaurent
Mantra,"Shop No. 1, Gorai Dattaprasad CH Plot No. 1, LT Road, Gorai",borivali,"Shop No. 1, Gorai Dattaprasad CH Plot No. 1, LT Road, Gorai ,  borivali",19.2324477,72.8274214,43,271612.5772,2127974.415,Restaurent
Around D Globe,"Mahavir Nagar CHS, Shop No 2 & 3,Ground Floor, Shripal Nagar, near Malpani Ground",borivali,"Mahavir Nagar CHS, Shop No 2 & 3,Ground Floor, Shripal Nagar, near Malpani Ground ,  borivali",19.2176909,72.8418611,43,273110.813,2126321.741,Restaurent
Pangat The Family Restaurant,"Radhe Govind Apartment, near ST Depot",borivali,"Radhe Govind Apartment, near ST Depot ,  borivali",19.2403574,72.8649146,43,275566.1727,2128801.261,Restaurent
Pangat Restaurant (Seafood ),"Gorai Rd, near Gokhale College",borivali,"Gorai Rd, near Gokhale College ,  borivali",19.2324099,72.8370149,43,272621.3988,2127957.65,Restaurent
KAFFEINE,"Shop No 1, Bhatia Apartment S V Road, Next to Vijay Sales",borivali,"Shop No 1, Bhatia Apartment S V Road, Next to Vijay Sales ,  borivali",19.2176854,72.8517621,43,274152.1018,2126308.245,Restaurent
Spice Republic,"Ajanta Estate, Market Road, Opp. Merwans Cake Shop, Off LT Road, Borivali, West",borivali,"Ajanta Estate, Market Road, Opp. Merwans Cake Shop, Off LT Road, Borivali, West ,  borivali",19.2296184,72.8536868,43,274370.826,2127626.87,Restaurent
Schumania Restaurant & Bar,"Shop No.8,9,10, El Plaza Apartments",borivali,"Shop No.8,9,10, El Plaza Apartments ,  borivali",19.246529,72.850534,43,274062.4218,2129503.173,Restaurent
Lotus Leaf,"Eskay Resorts, Off Link Road",borivali,"Eskay Resorts, Off Link Road ,  borivali",19.239962,72.8392695,43,272868.8903,2128790.815,Restaurent
Bombo,"5, Laxmi Chand CHS, Mathuradas Road, Opposite Vanja Wadi",kandivali,"5, Laxmi Chand CHS, Mathuradas Road, Opposite Vanja Wadi ,  kandivali",19.2033521,72.8429718,43,273207.9522,2124732.812,Restaurent
Swarajya,"New Link Rd, near gaon devi mandir",kandivali,"New Link Rd, near gaon devi mandir ,  kandivali",19.1478977,72.8324762,43,272027.6941,2118607.03,Restaurent
Butter Garlic,"Vasant Sagar, Shop No 53, Krishna Building",kandivali,"Vasant Sagar, Shop No 53, Krishna Building ,  kandivali",19.2085464,72.8730696,43,276380.6453,2125268.93,Restaurent
Global Flavours,"AB/08, Bandar Pakhadi Rd",kandivali,"AB/08, Bandar Pakhadi Rd ,  kandivali",19.2137789,72.8333307,43,272208.2664,2125899.783,Restaurent
Makhan Maar Ke,"Shop No. 13, Shivkrupa Shivdham CHS, Satya Nagar Rd, near bhagwati veg resturant",kandivali,"Shop No. 13, Shivkrupa Shivdham CHS, Satya Nagar Rd, near bhagwati veg resturant ,  kandivali",19.2176893,72.8416521,43,273088.8301,2126321.836,Restaurent
Sannidhi Family Restaurant and Bar,Vasanji Lalji Rd,kandivali,"Vasanji Lalji Rd ,  kandivali",19.2048231,72.8513964,43,274096.061,2124884.713,Restaurent
Mumbai Se Restaurant,"Shop No- 13, Orchid Suburbia, New Link Rd",kandivali,"Shop No- 13, Orchid Suburbia, New Link Rd ,  kandivali",19.2080048,72.8342115,43,272292.9487,2125259.363,Restaurent
Tawaazo Restaurant,"Bus Stop, SH22, Panchsheel Enclave, Sector 2, Transit Camp Kandivali West Off Link Road, Opp ICICI Bank, next to Renuka Nagar",kandivali,"Bus Stop, SH22, Panchsheel Enclave, Sector 2, Transit Camp Kandivali West Off Link Road, Opp ICICI Bank, next to Renuka Nagar ,  kandivali",19.2135284,72.8351802,43,272402.4407,2125869.628,Restaurent
ALEOZ,"No 1, Shop 2, Hemu Kalani Road, No 1, opposite Dhanamal School",kandivali,"No 1, Shop 2, Hemu Kalani Road, No 1, opposite Dhanamal School ,  kandivali",19.202935,72.8426801,43,273176.699,2124687.014,Restaurent
Lal Tadka Boutique Restaurant,"70/696, Suryadarshan CHSL, Opp SBI Bank",kandivali,"70/696, Suryadarshan CHSL, Opp SBI Bank ,  kandivali",19.2029489,72.851819,43,274137.9494,2124676.668,Restaurent
Ambika chinese restaurant,·,kandivali,"· ,  kandivali",19.2029489,72.851819,43,274137.9494,2124676.668,Restaurent
House Of Breakfast,Shop no 66 Raj arcade CHS LTD Road,kandivali,"Shop no 66 Raj arcade CHS LTD Road ,  kandivali",19.213018,72.8414966,43,273066.0605,2125804.869,Restaurent
Decent family restaurant,·,kandivali,"· ,  kandivali",19.2029489,72.851819,43,274137.9494,2124676.668,Restaurent
Roti and Grill Family Restaurant Kandivali East,"Shop no 37, Ground Floor, Centrium Shopping Centre Akurli Road, Lokhandwala, Circle",kandivali,"Shop no 37, Ground Floor, Centrium Shopping Centre Akurli Road, Lokhandwala, Circle ,  kandivali",19.1970289,72.8723628,43,276290.7261,2123994.731,Restaurent
Barbeque Nation - Mumbai - Kandivali,"Unit No. T01, 3rd Floor, Growels mall, Akurli Rd",kandivali,"Unit No. T01, 3rd Floor, Growels mall, Akurli Rd ,  kandivali",19.2033444,72.8595734,43,274954.0934,2124710.41,Restaurent
Rutuja Restaurant,6R8H+MFX,kandivali,"6R8H+MFX ,  kandivali",19.2167375,72.8287344,43,271728.9416,2126233.364,Restaurent
Royal Treat Restaurant And Bar,"Boraspada Road Mahavir Nagar, Kandiwali West",kandivali,"Boraspada Road Mahavir Nagar, Kandiwali West ,  kandivali",19.2142739,72.8396823,43,272876.9692,2125946.28,Restaurent
Around D Globe,"Mahavir Nagar CHS, Shop No 2 & 3,Ground Floor, Shripal Nagar, near Malpani Ground",kandivali,"Mahavir Nagar CHS, Shop No 2 & 3,Ground Floor, Shripal Nagar, near Malpani Ground ,  kandivali",19.2176909,72.8418611,43,273110.813,2126321.741,Restaurent
The Shivaay Veg Restaurant,Shop No. 31 / 32 / 33 Centrium Mall,kandivali,"Shop No. 31 / 32 / 33 Centrium Mall ,  kandivali",19.2033444,72.8595734,43,274954.0934,2124710.41,Restaurent
Delicacy Pure Veg Restaurant,"Shop No.1,2 & 3, Ground Floor, Abhilasha Apartment, S V Road, Opp Reliance Energy, Kandivali West",kandivali,"Shop No.1,2 & 3, Ground Floor, Abhilasha Apartment, S V Road, Opp Reliance Energy, Kandivali West ,  kandivali",19.1984536,72.8484948,43,273782.1608,2124183.303,Restaurent
FOOD MADNESS,"shop n. 1 mona cottage, Ramchandra Ln",kandivali,"shop n. 1 mona cottage, Ramchandra Ln ,  kandivali",19.1898974,72.8419005,43,273076.8152,2123244.61,Restaurent
Riwaayat biryani,Mahankali Rd,malad,"Mahankali Rd ,  malad",19.1889664,72.8253406,43,271333.6051,2123163.196,Restaurent
CafeKino,"3, CIEM INDUSTRIAL ESTATE, Ramchandra Ln, near movietime theatre",malad,"3, CIEM INDUSTRIAL ESTATE, Ramchandra Ln, near movietime theatre ,  malad",19.1888795,72.8365813,43,272515.8948,2123138.855,Restaurent
Foodo Restaurant,"Omkar Jay Malahar Building, 2, Liberty Garden Cross Rd Number 3",malad,"Omkar Jay Malahar Building, 2, Liberty Garden Cross Rd Number 3 ,  malad",19.184308,72.841133,43,272988.416,2122626.796,Restaurent
The Hungry Rabbit,"Shop No. 4, BM Autoworks Shakti Compound, Besides Tata Motors Showroom Chincholi Link Road, Near Evershine Mall",malad,"Shop No. 4, BM Autoworks Shakti Compound, Besides Tata Motors Showroom Chincholi Link Road, Near Evershine Mall ,  malad",19.1790259,72.8362029,43,272462.5464,2122048.435,Restaurent
Tastress,"New Rupali Building, Shop No.11, A-Wing",malad,"New Rupali Building, Shop No.11, A-Wing ,  malad",19.1924827,72.8332843,43,272174.0452,2123542.084,Restaurent
Flag's Restaurant Link Road Malad-Pure Vegetarian Restaurants in Malad West-Pure Vegetarian Restaurants in Goregaon West-Jain Food Restaurants in Malad West-Multi Cuisine Vegetarian Restaurants in Malad West-Vegetarian Restaurants in Goregaon West,"209-210, New Link Rd",malad,"209-210, New Link Rd ,  malad",19.1768098,72.8367396,43,272515.9606,2121802.385,Restaurent
Lala Bhai Restaurent & Abbas Chinese Centre,5RFX+VV6,malad,"5RFX+VV6 ,  malad",19.1746625,72.8496406,43,273870.1759,2121547.864,Restaurent
Dilli Deli Malad,"Shop 3, Ground Floor, Vasant Nagar, Chincholi Bunder Junction New Link Road, Malad West, near Mindspace",malad,"Shop 3, Ground Floor, Vasant Nagar, Chincholi Bunder Junction New Link Road, Malad West, near Mindspace ,  malad",19.1798809,72.836313,43,272475.3035,2122142.95,Restaurent
The Food Studio,"New Link Rd, Opposite Goregaon Sports Club",malad,"New Link Rd, Opposite Goregaon Sports Club ,  malad",19.1822783,72.8350283,43,272343.4555,2122410.05,Restaurent
"AL's Kitchen and Grill, Orlem, Malad","Premier Tower, Opp. Union Bank, Close to Orlem, Gautam Buddh Marg, Marve Rd",malad,"Premier Tower, Opp. Union Bank, Close to Orlem, Gautam Buddh Marg, Marve Rd ,  malad",19.194648,72.8392267,43,272802.0848,2123774.046,Restaurent
Shuddhi,"Shop Number 3, Vasant Nagar Rahiwasi Sangh, Chincholi Bunder Link Road Mind Space Signal, Near Box 8, opposite Trends",malad,"Shop Number 3, Vasant Nagar Rahiwasi Sangh, Chincholi Bunder Link Road Mind Space Signal, Near Box 8, opposite Trends ,  malad",19.1795465,72.8367667,43,272522.5712,2122105.335,Restaurent
Amkar Fast Food Veg Restaurant,"Shop No.16&17, Sunrise Tower CHS Ltd, Rani Sati Rd, near Passport Seva Kendra",malad,"Shop No.16&17, Sunrise Tower CHS Ltd, Rani Sati Rd, near Passport Seva Kendra ,  malad",19.182989,72.8563074,43,274582.8452,2122461.064,Restaurent
Delphin Restaurant,"Malwani No:1,Marve Road,Karodi,Next To Sagar Restaurant",malad,"Malwani No:1,Marve Road,Karodi,Next To Sagar Restaurant ,  malad",19.195665,72.8206233,43,270846.6683,2123911.02,Restaurent
Garden Court Restaurant,"167, Marve Rd, opposite HDFC Bank",malad,"167, Marve Rd, opposite HDFC Bank ,  malad",19.1933171,72.8403585,43,272919.3074,2123625.222,Restaurent
Le Garden,"Laxmi Palace, Opp. Sundar Nagar,Near Witty International School, S.V Road,Pawan Baug, Liliya Nagar, Malad West, Mumbai, Maharashtra 400064, Tel",malad,"Laxmi Palace, Opp. Sundar Nagar,Near Witty International School, S.V Road,Pawan Baug, Liliya Nagar, Malad West, Mumbai, Maharashtra 400064, Tel ,  malad",19.1761671,72.8476355,43,273661.2995,2121717.044,Restaurent
Urban Aladdin,"13, Shramjivi Udyog Bhavan, Ramchandra Ln",malad,"13, Shramjivi Udyog Bhavan, Ramchandra Ln ,  malad",19.18828,72.8377655,43,272639.6368,2123070.937,Restaurent
Urban Tadka,"Parth Business Plaza, 8th floor, New Link Rd",malad,"Parth Business Plaza, 8th floor, New Link Rd ,  malad",19.1951084,72.8340496,43,272258.1599,2123831.781,Restaurent
Jain's Subkuchh Food Plaza,"Subkuchh Complex, Near To Inorbit Mall, Link Road, Malad West",malad,"Subkuchh Complex, Near To Inorbit Mall, Link Road, Malad West ,  malad",19.1747419,72.8366578,43,272504.5147,2121573.55,Restaurent
Mangoes Rooftop Restaurant,"601, 6th Floor, Almar Arcade, Near Orlem Market, Orlem, Malad West",malad,"601, 6th Floor, Almar Arcade, Near Orlem Market, Orlem, Malad West ,  malad",19.1949006,72.8387439,43,272751.648,2123802.642,Restaurent
Trends Family Restaurant,"Western Suburbs, Link Road, Junction",malad,"Western Suburbs, Link Road, Junction ,  malad",19.1819724,72.8362972,43,272476.5157,2122374.525,Restaurent
Luqmaa,"564, Adarsh Nagar, Behind Amar glass, Opposite HP Petrol Pump, Andheri",andheri,"564, Adarsh Nagar, Behind Amar glass, Opposite HP Petrol Pump, Andheri ,  andheri",19.113645,72.8697339,43,275901.5356,2114766.671,Restaurent
Ralphys,Sterling CHS,andheri,"Sterling CHS ,  andheri",19.1374537,72.8270307,43,271440.3521,2117457.872,Restaurent
Mukka by Shemaroo,A-1,andheri,"A-1 ,  andheri",19.1218066,72.846632,43,273481.5027,2115700.023,Restaurent
The Palatable Restaurant,"G-9, MIDC Road No. 7, Kalpatru, Bhim Nagar CHS, behind Ackruti Star",andheri,"G-9, MIDC Road No. 7, Kalpatru, Bhim Nagar CHS, behind Ackruti Star ,  andheri",19.1178702,72.8679189,43,275716.2356,2115236.77,Restaurent
Alpha Hotel,4V79+FV5,andheri,"4V79+FV5 ,  andheri",19.1136375,72.8697344,43,275901.5781,2114765.84,Restaurent
Food Post,"Shop No. 02 , Ground Floor Bharat Plaza Rajasthan CHS Chakala",andheri,"Shop No. 02 , Ground Floor Bharat Plaza Rajasthan CHS Chakala ,  andheri",19.1114345,72.8689806,43,275819.2799,2114522.913,Restaurent
RJ Spice,"Shop No.2, Kondivita, A.K. Rd, Near J.B. Nagar, Bhim Nagar, Andheri East",andheri,"Shop No.2, Kondivita, A.K. Rd, Near J.B. Nagar, Bhim Nagar, Andheri East ,  andheri",19.113645,72.8697339,43,275901.5356,2114766.671,Restaurent
Apna Dhaba Family Restaurant and Bar,"318/41, Kakad Corner, Marol Pipeline, Andheri - Kurla Rd",andheri,"318/41, Kakad Corner, Marol Pipeline, Andheri - Kurla Rd ,  andheri",19.1115205,72.8710458,43,276036.7315,2114529.788,Restaurent
Poolside Cafe,"VITS Hotel, Andheri Kurla Road, International Airport Zone, Andheri East",andheri,"VITS Hotel, Andheri Kurla Road, International Airport Zone, Andheri East ,  andheri",19.1116603,72.8712235,43,276055.6205,2114545.037,Restaurent
Mystery Box - Andheri - J.B. Nagar / Chakala,"Metro Station, Mystery Box / Shawarma Street (Multi-Kitchen Outlet Shop No. 3, Post office Bldg, Sahar Rd, opp. Sahar Plaza Midas II, near J.B. Nagar",andheri,"Metro Station, Mystery Box / Shawarma Street (Multi-Kitchen Outlet Shop No. 3, Post office Bldg, Sahar Rd, opp. Sahar Plaza Midas II, near J.B. Nagar ,  andheri",19.1129083,72.8685788,43,275778.9838,2114686.592,Restaurent
Choice Restaurant | Best Restaurant In Andheri,"Abu Asad Compound Marol Pipeline Road, Andheri (E, opp. Mukund Hospital",andheri,"Abu Asad Compound Marol Pipeline Road, Andheri (E, opp. Mukund Hospital ,  andheri",19.1105114,72.8720541,43,276141.4829,2114416.78,Restaurent
Sai Prasad,"Opposite Tata Infotech, Kondivita Road, B Cross Road",andheri,"Opposite Tata Infotech, Kondivita Road, B Cross Road ,  andheri",19.114785,72.868207,43,275742.3895,2114894.838,Restaurent
spirit Kitchen,Shop no 4/5/6 A.K Road JB Nagar Opp Trade Star Andheri (E),andheri,"Shop no 4/5/6 A.K Road JB Nagar Opp Trade Star Andheri (E) ,  andheri",19.1110487,72.8709308,43,276023.9935,2114477.702,Restaurent
"@ MYX ,Indian /Asian Wraps n Rolls Resturant","58-59, Andheri Kurla Road Dheeraj Pen Compound",andheri,"58-59, Andheri Kurla Road Dheeraj Pen Compound ,  andheri",19.1129446,72.8662516,43,275534.1268,2114693.597,Restaurent
Jamavar - Indian Speciality Restaurant,Sahar Airport Rd,andheri,"Sahar Airport Rd ,  andheri",19.1027184,72.8653782,43,275428.3996,2113562.578,Restaurent
Atithi Family Restaurant Marol pipe line,"Marol Pipeline Rd, opp. R.P.I office",andheri,"Marol Pipeline Rd, opp. R.P.I office ,  andheri",19.1135248,72.873945,43,276344.5316,2114747.972,Restaurent
Gopal Krishna,"Opp Kohinoor Hotel, J B Nagar Road, S B Singh Colony, Andheri East Ajit",andheri,"Opp Kohinoor Hotel, J B Nagar Road, S B Singh Colony, Andheri East Ajit ,  andheri",19.1122731,72.8679607,43,275713.0801,2114617.062,Restaurent
Gajalee restaurant,"E3, Udyog Sadan No.2, MIDC, opposite ESIC Hospital",andheri,"E3, Udyog Sadan No.2, MIDC, opposite ESIC Hospital ,  andheri",19.1174955,72.8673108,43,275651.7373,2115196.067,Restaurent
Ummrao,C.T.S No 215 Andheri Kurla Road Andheri east,andheri,"C.T.S No 215 Andheri Kurla Road Andheri east ,  andheri",19.1140703,72.8641579,43,275315.3152,2114820.913,Restaurent
ROYAL DINING BAR,"318 / 41, Andheri - Kurla Rd Nehru Nagar, Andheri - Kurla Rd",andheri,"318 / 41, Andheri - Kurla Rd Nehru Nagar, Andheri - Kurla Rd ,  andheri",19.1113662,72.8711627,43,276048.8258,2114512.556,Restaurent
Nawabiyat - Taste of Lucknow,"Ground Floor, Mona Bhavan, Shop No.4, Military Rd, near Hotel Hari Prasad",vileparle,"Ground Floor, Mona Bhavan, Shop No.4, Military Rd, near Hotel Hari Prasad ,  vileparle",19.117253,72.882355,43,277234.559,2115149.98,Restaurent
Golden Gate's Kitchen,"Prime Business Park, 2, Dashrathlal Joshi Rd",vileparle,"Prime Business Park, 2, Dashrathlal Joshi Rd ,  vileparle",19.1000805,72.8414396,43,272905.4137,2113301.437,Restaurent
Hotpot kitchen,"Shop no.4, Homai Mahal CHS ltd Shahaji Raje Marg, Prabodhankar Thackeray Krida Sankul",vileparle,"Shop no.4, Homai Mahal CHS ltd Shahaji Raje Marg, Prabodhankar Thackeray Krida Sankul ,  vileparle",19.1092312,72.848749,43,273687.1521,2114305.047,Restaurent
Asian Eats Oriental and Tandoor,Monghibai Rd,vileparle,"Monghibai Rd ,  vileparle",19.0997975,72.8451217,43,273292.5535,2113265.331,Restaurent
Gajalee,"Kadamgiri Complex Hanuman Road, next to Icici Bank",vileparle,"Kadamgiri Complex Hanuman Road, next to Icici Bank ,  vileparle",19.103696,72.853274,43,274155.8421,2113686.392,Restaurent
South of Vindhyas - The Orchid,"The Orchid Hotel Mumbai Vile Parle, 70C, Nehru Rd",vileparle,"The Orchid Hotel Mumbai Vile Parle, 70C, Nehru Rd ,  vileparle",19.0971453,72.8546963,43,274296.6392,2112959.325,Restaurent
Manuhaar (The Vegetarian Thali Restaurant),"Chhatrapati Shivaji International, Western Express Hwy",vileparle,"Chhatrapati Shivaji International, Western Express Hwy ,  vileparle",19.092962,72.849717,43,273766.8933,2112502.62,Restaurent
Aquafire,"building, floor no 5- 10, E- Square, Subhash Rd",vileparle,"building, floor no 5- 10, E- Square, Subhash Rd ,  vileparle",19.1074227,72.8517714,43,274002.7696,2114100.918,Restaurent
Mabruk - Mediterranean Restaurant,Sahara Star Domestic Airport,vileparle,"Sahara Star Domestic Airport ,  vileparle",19.0957428,72.8538296,43,274203.5179,2112805.172,Restaurent
Namak - Indian Specialty Restaurant,"Hotel Sahara Star, opposite Terminal 1",vileparle,"Hotel Sahara Star, opposite Terminal 1 ,  vileparle",19.0957428,72.8538296,43,274203.5179,2112805.172,Restaurent
Garde Manger Cafe and BAKERY,"Shop No 1 , Parmar Housing Society Paranjape B Scheme, Rd Number 1, beside Natural Ice Cream",vileparle,"Shop No 1 , Parmar Housing Society Paranjape B Scheme, Rd Number 1, beside Natural Ice Cream ,  vileparle",19.1047276,72.8522504,43,274049.5172,2113801.923,Restaurent
Shabri,"Nehru Rd, near hotel rama krishna",vileparle,"Nehru Rd, near hotel rama krishna ,  vileparle",19.0988414,72.8444084,43,273216.1779,2113160.405,Restaurent
En'Creo Bistro,Subhash Rd,vileparle,"Subhash Rd ,  vileparle",19.1054494,72.8498077,43,273793.4235,2113884.991,Restaurent
Mostly Grills,"Chhatrapati Shivaji Maharaj International Airport, The Orchid",vileparle,"Chhatrapati Shivaji Maharaj International Airport, The Orchid ,  vileparle",19.0971453,72.8546963,43,274296.6392,2112959.325,Restaurent
Gourmet Gusto,"Shop No. 8/B, Seva Sadan, Lajpatrai Rd",vileparle,"Shop No. 8/B, Seva Sadan, Lajpatrai Rd ,  vileparle",19.1002514,72.8402473,43,272780.1625,2113321.906,Restaurent
Thai Naam by Ananda,"Chhatrapati Shivaji International Airport, F-1, 1st Floor, The Orb, JW Marriott Sahar, IA Project Rd",vileparle,"Chhatrapati Shivaji International Airport, F-1, 1st Floor, The Orb, JW Marriott Sahar, IA Project Rd ,  vileparle",19.1025072,72.8782482,43,276782.588,2113522.724,Restaurent
Rama Krishna Restaurant,"148, Nehru Rd",vileparle,"148, Nehru Rd ,  vileparle",19.0988417,72.8448968,43,273267.5807,2113159.805,Restaurent
Jeevan Restaurant,"Shop No, 17, VS Khandekar Rd, opp. Railway Station",vileparle,"Shop No, 17, VS Khandekar Rd, opp. Railway Station ,  vileparle",19.0990855,72.8444641,43,273222.373,2113187.357,Restaurent
Malwani Aswad,"Shahaji Raje Road, Opp. Bhuta High School",vileparle,"Shahaji Raje Road, Opp. Bhuta High School ,  vileparle",19.1078193,72.8486041,43,273669.9805,2114148.922,Restaurent
Spice It,"Plot No F 77 Vile Parle East, Junction of Nehru Road",vileparle,"Plot No F 77 Vile Parle East, Junction of Nehru Road ,  vileparle",19.0965283,72.8534752,43,274167.2844,2112892.593,Restaurent
Kya Lenge Aap,"Shop No.5, R T Building, Pherozeshah Mehta Rd",vileparle,"Shop No.5, R T Building, Pherozeshah Mehta Rd ,  vileparle",19.0966148,72.8482303,43,273615.3888,2112908.946,Restaurent
Pali Bhavan,"10, Pali Mala Rd",bandra,"10, Pali Mala Rd ,  bandra",19.0622105,72.8293884,43,271585.1207,2109124.474,Restaurent
Global Fusion Bandra,"Linking Rd, opp. KFC",bandra,"Linking Rd, opp. KFC ,  bandra",19.065176,72.8338089,43,272054.5248,2109447.034,Restaurent
"Bastian, Bandra","Kamal Building, B/1, New, Linking Rd, next to Burger King",bandra,"Kamal Building, B/1, New, Linking Rd, next to Burger King ,  bandra",19.0634363,72.835077,43,272185.6374,2109252.781,Restaurent
"Hotel Arma Restaurant - Non Veg Restaurants in Bandra, Family Restaurants in Bandra, Best Moghali Restaurants, Best Chinese Restaurants in Bandra","ground floor, bus depot, Building no 2, Anant Kanekar Marg, opp. Bandra, beside mseb",bandra,"ground floor, bus depot, Building no 2, Anant Kanekar Marg, opp. Bandra, beside mseb ,  bandra",19.0552353,72.8448215,43,273200.2753,2108332.207,Restaurent
The Bandra Restaurant,"114, Fatema Cottage, D Monte St, near National Bakery",bandra,"114, Fatema Cottage, D Monte St, near National Bakery ,  bandra",19.0540053,72.8313259,43,271777.8496,2108213.542,Restaurent
Veranda,"331, Doctor BR Ambedkar Road, Pali Hill",bandra,"331, Doctor BR Ambedkar Road, Pali Hill ,  bandra",19.066794,72.830237,43,271680.7331,2109630.815,Restaurent
Shibuii,"1st floor, Suru palace, Hill road Diagonally, opposite Mark's & Spencer",bandra,"1st floor, Suru palace, Hill road Diagonally, opposite Mark's & Spencer ,  bandra",19.056203,72.833908,43,272052.6862,2108453.494,Restaurent
House of Mandarin Bandra,"Classic Corner, Building, Hill Rd",bandra,"Classic Corner, Building, Hill Rd ,  bandra",19.0551117,72.8265763,43,271279.3496,2108342.222,Restaurent
Good Luck Restaurant,"Mehboob Khan Chowk, 106, Hill Rd",bandra,"Mehboob Khan Chowk, 106, Hill Rd ,  bandra",19.0520176,72.824146,43,271019.2503,2108002.841,Restaurent
Nom Nom Restaurant,"1 & 2 ,Ground Floor, Delux Mahal Building, 16th Road, Near Mini Punjab, Pali Hill, Bandra West",bandra,"1 & 2 ,Ground Floor, Delux Mahal Building, 16th Road, Near Mini Punjab, Pali Hill, Bandra West ,  bandra",19.0653185,72.8308177,43,271739.8408,2109466.703,Restaurent
Sahibaan,"3, Carlton Court, Turner Road, Bandra West, opp. Axis Bank",bandra,"3, Carlton Court, Turner Road, Bandra West, opp. Axis Bank ,  bandra",19.059763,72.8297542,43,271620.2752,2108853.032,Restaurent
Lucky Restaurant,"9, Hill Rd",bandra,"9, Hill Rd ,  bandra",19.053871,72.826334,43,271252.1393,2108205.178,Restaurent
Amrut Sagar Fast Food,"Rizvi Place Society, 31, Hill Rd, opp. Marks & Spencer Showroom",bandra,"Rizvi Place Society, 31, Hill Rd, opp. Marks & Spencer Showroom ,  bandra",19.0558027,72.8342328,43,272086.332,2108408.754,Restaurent
Hotel Bandra Gomantak,"General Arunkumar Vaidya Marg, opp. Sarita Apartments",bandra,"General Arunkumar Vaidya Marg, opp. Sarita Apartments ,  bandra",19.05276,72.8322526,43,271873.7049,2108074.468,Restaurent
Arbab,"Plot no 117, Shop, no 4, 28th Rd",bandra,"Plot no 117, Shop, no 4, 28th Rd ,  bandra",19.0600304,72.8334223,43,272006.789,2108877.861,Restaurent
Barbeque Nation - Bandra,"Ground Floor, 355, Hotel Metro Palace, Hill Rd, opposite Marks and Spencer",bandra,"Ground Floor, 355, Hotel Metro Palace, Hill Rd, opposite Marks and Spencer ,  bandra",19.0561673,72.8343374,43,272097.842,2108448.983,Restaurent
New Bostan Restaurant,"Swami Vivekananda Rd, opposite jama masjid",bandra,"Swami Vivekananda Rd, opposite jama masjid ,  bandra",19.0518478,72.838582,43,272538.7957,2107965.256,Restaurent
Tossin Pizza Hill Road Bandra | Best Pizza in Bandra West,"Shop Number 9, Ground Floor, Rizvi House, A Wing, 34, Hill Rd",bandra,"Shop Number 9, Ground Floor, Rizvi House, A Wing, 34, Hill Rd ,  bandra",19.0561681,72.8350297,43,272170.7244,2108448.172,Restaurent
"Yalla Yalla, Pali Hill, Bandra West","Shop No.3, Diamond House Building, Linkway Hotel Lane, Linking Rd, behind National College",bandra,"Shop No.3, Diamond House Building, Linkway Hotel Lane, Linking Rd, behind National College ,  bandra",19.0649091,72.835427,43,272224.4947,2109415.381,Restaurent
National Restaurant,"21-A, Turner Rd, near Sahakari Bhandar",bandra,"21-A, Turner Rd, near Sahakari Bhandar ,  bandra",19.0567575,72.8393806,43,272629.5645,2108507.777,Restaurent
Hachi with love,·,matunga,"· ,  matunga",19.0268747,72.8553352,43,274268.7317,2105178.847,Restaurent
XI'S CHINESE,"Shop no 1, Meghji Siddhi, Andhra Valley Rd, opp. MSEB",matunga,"Shop no 1, Meghji Siddhi, Andhra Valley Rd, opp. MSEB ,  matunga",19.0365965,72.8521967,43,273951.4371,2106259.183,Restaurent
Ram Ashraya,"Shreeji Sadan, 24, Bhandarkar Rd, Opposite Matunga Kabutar Khana",matunga,"Shreeji Sadan, 24, Bhandarkar Rd, Opposite Matunga Kabutar Khana ,  matunga",19.0279393,72.8517356,43,273891.1657,2105301.339,Restaurent
Udipi Restaurant,"461, Bhaudaji Rd",matunga,"461, Bhaudaji Rd ,  matunga",19.02795,72.855589,43,274296.908,2105297.566,Restaurent
"Messy Addaa -Matunga,Mumbai Cafe and restaurant","Noor Mahal, Plot No 541, Ground Floor, near King Circle",matunga,"Noor Mahal, Plot No 541, Ground Floor, near King Circle ,  matunga",19.0259151,72.8549403,43,274225.8549,2105073.117,Restaurent
Gold Coins Eatery & Bar - Matunga,"Shop No. 4, 6-12, Marble Arch Building Senapati Bapat Marg off Tulsi Pipe Lane Near Matunga West, Station",matunga,"Shop No. 4, 6-12, Marble Arch Building Senapati Bapat Marg off Tulsi Pipe Lane Near Matunga West, Station ,  matunga",19.0291747,72.8466785,43,273360.3747,2105444.63,Restaurent
Ahar Restaurant,"Maneklal Mansion, Kings Circle, Maheshwari Udyan, Dr Baba Saheb Ambedkar Road, Matunga East",matunga,"Maneklal Mansion, Kings Circle, Maheshwari Udyan, Dr Baba Saheb Ambedkar Road, Matunga East ,  matunga",19.0274335,72.856399,43,274381.4957,2105239.344,Restaurent
Cafe Madras®️,"GROUND FLOOR KAMAKSHI BUILDING, 391/B, Bhaudaji Rd",matunga,"GROUND FLOOR KAMAKSHI BUILDING, 391/B, Bhaudaji Rd ,  matunga",19.0276203,72.8550415,43,274238.8156,2105261.769,Restaurent
Rangoli - Thali & Multi Cuisine Restaurant,"Matunga Gujarati Club Ltd, Nathalal Parekh Marg, next to Don Bosco International",matunga,"Matunga Gujarati Club Ltd, Nathalal Parekh Marg, next to Don Bosco International ,  matunga",19.0263457,72.8571599,43,274460.1426,2105117.937,Restaurent
Shirke's VadaPav Centre,"Nagardas Building, Laxmi Narayan Ln",matunga,"Nagardas Building, Laxmi Narayan Ln ,  matunga",19.0286837,72.8514787,43,273865.1245,2105384.083,Restaurent
Trilok family restaurant & bar,"308, Chandawarkar Marg",matunga,"308, Chandawarkar Marg ,  matunga",19.0275739,72.8516264,43,273879.1731,2105261.027,Restaurent
New Punjab Restaurant & Bar,"King Circle, Bhaudaji Rd",matunga,"King Circle, Bhaudaji Rd ,  matunga",19.0274124,72.8552261,43,274257.9713,2105238.515,Restaurent
Arya Bhavan,"Shop No. 9 & 10, Bhanujyoti Building Opposite Matunga Central Railway Station, Lakhamsi Napoo Rd",matunga,"Shop No. 9 & 10, Bhanujyoti Building Opposite Matunga Central Railway Station, Lakhamsi Napoo Rd ,  matunga",19.0270381,72.8510217,43,273814.7779,2105202.487,Restaurent
Udipi Shri Krishna Boarding,"1st Floor, LBS Market Building, Lakhamsi Napoo Road, Near Matunga Central Railway Station, Matunga",matunga,"1st Floor, LBS Market Building, Lakhamsi Napoo Road, Near Matunga Central Railway Station, Matunga ,  matunga",19.0273424,72.8507532,43,273786.9193,2105236.522,Restaurent
Durga Restaurant and Bar,"279-B, Nalla Mansion, Opposite Matunga Central Railway Station, Lakhamsi Napoo Rd",matunga,"279-B, Nalla Mansion, Opposite Matunga Central Railway Station, Lakhamsi Napoo Rd ,  matunga",19.0265782,72.8507458,43,273785.105,2105151.927,Restaurent
Chai matunga,Kings Cir,matunga,"Kings Cir ,  matunga",19.0274124,72.8552261,43,274257.9713,2105238.515,Restaurent
Mumbai Bites Matunga,Bhaudaji Rd,matunga,"Bhaudaji Rd ,  matunga",19.0311187,72.8544842,43,274184.868,2105649.793,Restaurent
CHICAGO PIZZA (MATUNGA - WEST),"SHOP NO. 1, MEGHJI SIDDHI CHAWL, Andhra Valley Rd, near TATA POWER HOUSE",matunga,"SHOP NO. 1, MEGHJI SIDDHI CHAWL, Andhra Valley Rd, near TATA POWER HOUSE ,  matunga",19.036569,72.85286,43,274021.2358,2106255.284,Restaurent
Mani's Lunch Home,"Mhaskar Building, Plot. No. 153/C, Lakshami Narayan Rd",matunga,"Mhaskar Building, Plot. No. 153/C, Lakshami Narayan Rd ,  matunga",19.0228143,72.8495797,43,273657.2235,2104736.729,Restaurent
A.Rama Nayak's Udipi Idli House,"# 462, Ram Bhavan, Babasaheb Ambedkar Road, Maheshwari Udyan E), Kings Cir",matunga,"# 462, Ram Bhavan, Babasaheb Ambedkar Road, Maheshwari Udyan E), Kings Cir ,  matunga",19.0275,72.8563889,43,274380.5221,2105246.719,Restaurent
Parel Food Corner Family Restaurant,"12 to 16 Iqbal mansion, Dr Baba Saheb Ambedkar Rd, near premire cinema",kurla,"12 to 16 Iqbal mansion, Dr Baba Saheb Ambedkar Rd, near premire cinema ,  kurla",19.00734,72.84072,43,272703.2992,2103035.005,Restaurent
Tezz Foods,"Shop 22 Premier Exotica, opposite Don Bosco",kurla,"Shop 22 Premier Exotica, opposite Don Bosco ,  kurla",19.0803518,72.8890712,43,277892.0522,2111056.161,Restaurent
Persian Darbar,"Shop no, Kanakia Zillion, 17, Lal Bahadur Shastri Rd",kurla,"Shop no, Kanakia Zillion, 17, Lal Bahadur Shastri Rd ,  kurla",19.0752386,72.8764306,43,276554.6906,2110506.164,Restaurent
Burnt Chillies Indo-Chinese Cuisine,"Shop No. 200 E1, Behind Lazeez Seekh Kabab A. H. Wadia Marg, New Mill Rd",kurla,"Shop No. 200 E1, Behind Lazeez Seekh Kabab A. H. Wadia Marg, New Mill Rd ,  kurla",19.07902,72.8802896,43,276965.9519,2110919.88,Restaurent
TIC TAC TOE (T3) RESTAURANT AND HERBAL SHISHA,"Kohinoor city mall F90 1st floor Opp. Holy Cross high scool, Nausena Vihar Road",kurla,"Kohinoor city mall F90 1st floor Opp. Holy Cross high scool, Nausena Vihar Road ,  kurla",19.0816834,72.8863469,43,277607.0823,2111207.038,Restaurent
Barbeque Nation,"Unit S - 49 , 50, Lal Bahadur Shastri Rd",kurla,"Unit S - 49 , 50, Lal Bahadur Shastri Rd ,  kurla",19.0698128,72.8752296,43,276420.9912,2109907.012,Restaurent
Naaz Hotel Family Restaurant,"Kantharia Mahal, Lal Bahadur Shastri Rd, Opposite phoenix market city",kurla,"Kantharia Mahal, Lal Bahadur Shastri Rd, Opposite phoenix market city ,  kurla",19.0863795,72.8889774,43,277890.2214,2111723.596,Restaurent
Deluxe Restaurant,"Bus Depot, Deluxe Restaurant Mubeen Manzil, Lal Bahadur Shastri Rd, near Kurla",kurla,"Bus Depot, Deluxe Restaurant Mubeen Manzil, Lal Bahadur Shastri Rd, near Kurla ,  kurla",19.0727107,72.8759389,43,276499.5424,2110226.93,Restaurent
Bey's Kitchen,"Shop No 7, Kurla Garden, opp. Hari Masjid",kurla,"Shop No 7, Kurla Garden, opp. Hari Masjid ,  kurla",19.0630613,72.8723399,43,276107.7406,2109163.249,Restaurent
Prakash Restaurant,"laxman rao yadav market, S G barve marg, kurla West, behind L ward municipal office",kurla,"laxman rao yadav market, S G barve marg, kurla West, behind L ward municipal office ,  kurla",19.0704672,72.8790936,43,276828.6046,2109974.533,Restaurent
Alif Restaurant,"Shop No. 6, Gomes town, Opp Phoenix Mall, behind Naaz Hotel",kurla,"Shop No. 6, Gomes town, Opp Phoenix Mall, behind Naaz Hotel ,  kurla",19.0863795,72.8889774,43,277890.2214,2111723.596,Restaurent
Sawali Restaurant (Pure Veg),"Shop No. 11, Angulimala Co-Operative Society, B-Wing, SG Barve Marg, Nehru Nagar, Kurla East, Near Shiv Sena Shaka",kurla,"Shop No. 11, Angulimala Co-Operative Society, B-Wing, SG Barve Marg, Nehru Nagar, Kurla East, Near Shiv Sena Shaka ,  kurla",19.0628423,72.8830215,43,277231.8718,2109125.394,Restaurent
Naaz Restaurant,"Building No 5, Shamsuddin Nagar, Andheri - Kurla Rd",kurla,"Building No 5, Shamsuddin Nagar, Andheri - Kurla Rd ,  kurla",19.119993,72.8686328,43,275794.2263,2115470.869,Restaurent
"Punjab Grill - Phoenix Market City, Mumbai","Lah Bahadur Shastri Rd Shop 81 & 82, First Floor, Phoenix Market City, Kamani Junction",kurla,"Lah Bahadur Shastri Rd Shop 81 & 82, First Floor, Phoenix Market City, Kamani Junction ,  kurla",19.0863795,72.8889774,43,277890.2214,2111723.596,Restaurent
Wahid Restaurant,Pipe Line Rd,kurla,"Pipe Line Rd ,  kurla",19.0747693,72.8814051,43,277077.6763,2110447.87,Restaurent
Pop Tate's,"Unit 83, Lal Bahadur Shastri Rd",kurla,"Unit 83, Lal Bahadur Shastri Rd ,  kurla",19.0698198,72.8752309,43,276421.1375,2109907.785,Restaurent
NYRA'S COASTAL CURRY,"Shop no 485, HARI KUMBHAR CHAWL, CST Road, near New Model Cinema",kurla,"Shop no 485, HARI KUMBHAR CHAWL, CST Road, near New Model Cinema ,  kurla",19.0735166,72.8762631,43,276534.7493,2110315.737,Restaurent
Pukhtaan,Lal Bahadur Shastri Rd,kurla,"Lal Bahadur Shastri Rd ,  kurla",19.0760409,72.8775201,43,276670.4469,2110593.596,Restaurent
Food paradise,"Shop no. C2, Shiv krupa society, SG Barve Marg, opp. Abhyudaya bank",kurla,"Shop no. C2, Shiv krupa society, SG Barve Marg, opp. Abhyudaya bank ,  kurla",19.0617924,72.8831016,43,277238.9005,2109009.06,Restaurent
Shiv Sagar,"Shop F31, Lal Bahadur Shastri Rd",kurla,"Shop F31, Lal Bahadur Shastri Rd ,  kurla",19.0871632,72.8889544,43,277888.8465,2111810.387,Restaurent
Sahara Hotel,"Aero View C.H.S, Lal Bahadur Shastri Rd, near Bank Of Baroda",kurla,"Aero View C.H.S, Lal Bahadur Shastri Rd, near Bank Of Baroda ,  kurla",19.079703,72.880025,43,276939.0158,2110995.831,Restaurent
Asaanjo Kitchen,"102, Thrupti CHSL., Behind MK Plaza, Ghodbunder Rd",thane,"102, Thrupti CHSL., Behind MK Plaza, Ghodbunder Rd ,  thane",19.2655669,72.9667946,43,286311.7978,2131463.626,Restaurent
Dehatee Kitchen,Viviana Mall Road,thane,"Viviana Mall Road ,  thane",19.2087175,72.9715119,43,286734.3016,2125164.292,Restaurent
BBQ Adda - Thane,"Shop No.5, Dive chawl, near Dutta mandir Runwal nagar Opp,. Viviana mall",thane,"Shop No.5, Dive chawl, near Dutta mandir Runwal nagar Opp,. Viviana mall ,  thane",19.2087175,72.9715119,43,286734.3016,2125164.292,Restaurent
Chulha Village- Best Restaurant in Ghodbunder Road & Hiranandani Estate,"Block No 100, Next to Vijay Annex, Bldg. 31/32 Waghbil-Hiranandani Estate, Junction, Ghodbunder Rd",thane,"Block No 100, Next to Vijay Annex, Bldg. 31/32 Waghbil-Hiranandani Estate, Junction, Ghodbunder Rd ,  thane",19.2584937,72.9761156,43,287282.6204,2130669.132,Restaurent
Greek Gyros - Best Cafe In Thane - Best Restaurant In Thane,"Sunrise shopping complex, behind Hiranandani Meadows",thane,"Sunrise shopping complex, behind Hiranandani Meadows ,  thane",19.2272008,72.9740704,43,287027.2043,2127207.352,Restaurent
Lord Of Bar-B-Que,"service road, Flower Valley (All Heavens Banquet, Eastern Express Hwy, opp. Viviana Mall",thane,"service road, Flower Valley (All Heavens Banquet, Eastern Express Hwy, opp. Viviana Mall ,  thane",19.2073849,72.9725915,43,286846.1249,2125015.444,Restaurent
The Caravan Menu,"Sun Magnetica, Green Rd, near LIC building",thane,"Sun Magnetica, Green Rd, near LIC building ,  thane",19.1952078,72.9617632,43,285691.5224,2123680.671,Restaurent
The Misal Haus - Best Misal in Thane,"Shop No 8. Saurabh Tower, Comrade Rajaram Vishnu Rawool Marg",thane,"Shop No 8. Saurabh Tower, Comrade Rajaram Vishnu Rawool Marg ,  thane",19.2046388,72.9744865,43,287041.8864,2124709.117,Restaurent
D Two States Fine Dine,"Dosti Imperia, 27, Khewra Cir Marg, Ghodbunder Rd",thane,"Dosti Imperia, 27, Khewra Cir Marg, Ghodbunder Rd ,  thane",19.2322091,72.9753984,43,287173.3095,2127760.17,Restaurent
Burrito Factory Mexican Cafe - Best Cafes In Thane West - Best Restaurants In Thane West,"Shop 24, First Floor, Wonder Mall Ghodbunder Rd, Kapurbawdi, Thane West Thane",thane,"Shop 24, First Floor, Wonder Mall Ghodbunder Rd, Kapurbawdi, Thane West Thane ,  thane",19.2211274,72.9771512,43,287343.3556,2126531.226,Restaurent
HITCHKI,"Viviana Mall, Eastern Express Hwy, near Jupiter Hospital",thane,"Viviana Mall, Eastern Express Hwy, near Jupiter Hospital ,  thane",19.2097096,72.9723931,43,286828.2567,2125273.043,Restaurent
Family Tree,"Shop no 4, Ravi Industrial Estate, Panchpakhadi",thane,"Shop no 4, Ravi Industrial Estate, Panchpakhadi ,  thane",19.1935288,72.9665125,43,286188.879,2123488.959,Restaurent
The Yellow Chilli,Eastern Express Hwy,thane,"Eastern Express Hwy ,  thane",19.1724239,72.9684543,43,286365.8846,2121150.159,Restaurent
China Bistro Thane,"Infinity Shopping Complex, Ground Floor, Asher Residency, Pokharan Road Number 2, Gandhi Nagar, Thane West",thane,"Infinity Shopping Complex, Ground Floor, Asher Residency, Pokharan Road Number 2, Gandhi Nagar, Thane West ,  thane",19.2195567,72.9711311,43,286708.2426,2126364.714,Restaurent
Barbeque Nation,"2nd Floor, Korum Mall, Mangal Pandey Road Near Cadbury Compound, Eastern Express Hwy",thane,"2nd Floor, Korum Mall, Mangal Pandey Road Near Cadbury Compound, Eastern Express Hwy ,  thane",19.2028031,72.9653798,43,286081.736,2124517.063,Restaurent
Utsav Restaurant,"Arun Kumar Vaidya Rd, Banacha Pada, Panch Pakhadi, Thane West",thane,"Arun Kumar Vaidya Rd, Banacha Pada, Panch Pakhadi, Thane West ,  thane",19.1962065,72.9670282,43,286246.5799,2123784.761,Restaurent
Grand Thali Restaurant,·,thane,"· ,  thane",19.2183307,72.9780897,43,287438.4517,2126220.47,Restaurent
Rainbow,"Fortune Park Lakecity ,Eastern Express Highway, Service Road",thane,"Fortune Park Lakecity ,Eastern Express Highway, Service Road ,  thane",19.2097592,72.9726031,43,286850.4062,2125278.277,Restaurent
Barbeque Nation - Mumbai - Ghodbunder Road,"4th Floor, Rosa Vista Maharashtra State Highway 42 opposite suraj Water Park Kavesar, Thane West Thane, Ghodbunder Road",thane,"4th Floor, Rosa Vista Maharashtra State Highway 42 opposite suraj Water Park Kavesar, Thane West Thane, Ghodbunder Road ,  thane",19.2559648,72.9718121,43,286826.8888,2130394.449,Restaurent